{"type":"FeatureCollection","name":"lm_bioma_250","crs":{"type":"name","properties":{"name":"urn:ogc:def:crs:OGC:1.3:CRS84"}},"features":[{"type":"Feature","properties":{"bioma":"Amazônia"},"geometry":{"type":"MultiPolygon","coordinates":[[[[-58.9453,-16.3014],[-59.0294,-16.2979],[-58.9467,-16.3013],[-58.9453,-16.3014]]],[[[-59.9644,-12.5958],[-59.9778,-12.6135],[-59.9501,-12.6431],[-59.9926,-12.632],[-59.998,-12.6422],[-59.9545,-12.702],[-60.0057,-12.7446],[-60.0437,-12.7272],[-60.0328,-12.8751],[-60.0098,-12.9081],[-60.0373,-12.9589],[-60.0211,-12.9635],[-59.9919,-12.9279],[-59.9852,-12.9405],[-59.9489,-12.9398],[-59.9234,-12.9819],[-59.9246,-12.9461],[-59.911,-12.9353],[-59.9323,-12.8733],[-59.9113,-12.8337],[-59.8758,-12.8505],[-59.8847,-12.8882],[-59.8106,-12.863],[-59.7871,-12.8948],[-59.7723,-12.8797],[-59.7374,-12.893],[-59.7386,-12.9245],[-59.7709,-12.9482],[-59.7481,-12.9529],[-59.7553,-12.9837],[-59.7295,-13.0063],[-59.6994,-13.0021],[-59.6976,-12.976],[-59.7186,-12.9656],[-59.6991,-12.9395],[-59.672,-12.9563],[-59.6463,-12.9335],[-59.6684,-12.8958],[-59.61,-12.9223],[-59.6181,-12.9588],[-59.6408,-12.9491],[-59.6754,-12.9738],[-59.6824,-13.0281],[-59.649,-13.045],[-59.6875,-13.0708],[-59.6775,-13.1047],[-59.7063,-13.1303],[-59.6871,-13.1676],[-59.7136,-13.1856],[-59.6918,-13.1933],[-59.7233,-13.2506],[-59.7209,-13.3086],[-59.7479,-13.366],[-59.7801,-13.2211],[-59.7535,-13.217],[-59.7633,-13.1914],[-59.7984,-13.1771],[-59.846,-13.2285],[-59.8334,-13.2459],[-59.8004,-13.2386],[-59.7978,-13.265],[-59.8462,-13.2744],[-59.8776,-13.1977],[-59.9206,-13.1951],[-59.9455,-13.1327],[-59.9694,-13.2035],[-59.9367,-13.2136],[-59.9468,-13.2376],[-59.9115,-13.2623],[-59.9305,-13.2789],[-59.9294,-13.3336],[-59.8951,-13.3431],[-59.8926,-13.3933],[-59.8666,-13.3927],[-59.8541,-13.4139],[-59.8827,-13.4483],[-59.905,-13.4439],[-59.9093,-13.4767],[-59.8805,-13.4762],[-59.8317,-13.552],[-59.7689,-13.5878],[-59.7666,-13.6342],[-59.8017,-13.6242],[-59.7987,-13.6501],[-59.8258,-13.6688],[-59.8232,-13.6982],[-59.7982,-13.7052],[-59.7689,-13.6529],[-59.7735,-13.6813],[-59.7347,-13.6942],[-59.7227,-13.7503],[-59.6861,-13.7559],[-59.684,-13.7978],[-59.6659,-13.7956],[-59.668,-13.8171],[-59.6488,-13.8342],[-59.6568,-13.8591],[-59.694,-13.834],[-59.7019,-13.7756],[-59.7391,-13.7674],[-59.7427,-13.7384],[-59.8024,-13.7308],[-59.7744,-13.8011],[-59.7982,-13.8321],[-59.776,-13.8609],[-59.7878,-13.8908],[-59.7721,-13.8914],[-59.7753,-13.906],[-59.7378,-13.9042],[-59.732,-13.953],[-59.7192,-13.9593],[-59.7047,-13.9358],[-59.6298,-13.9344],[-59.6358,-14.0107],[-59.6152,-14.0084],[-59.5452,-14.0991],[-59.5485,-14.1661],[-59.5787,-14.1739],[-59.5902,-14.2414],[-59.5712,-14.2826],[-59.5353,-14.3042],[-59.5588,-14.3624],[-59.5465,-14.4007],[-59.5207,-14.3851],[-59.5077,-14.3929],[-59.5106,-14.4297],[-59.4788,-14.4442],[-59.4532,-14.4883],[-59.4627,-14.5008],[-59.4904,-14.4802],[-59.4945,-14.4974],[-59.4576,-14.5321],[-59.4357,-14.5321],[-59.4323,-14.5663],[-59.4149,-14.568],[-59.3952,-14.6031],[-59.4089,-14.6256],[-59.3682,-14.6458],[-59.3335,-14.6376],[-59.3293,-14.6734],[-59.316,-14.6638],[-59.2833,-14.6858],[-59.3199,-14.7007],[-59.3293,-14.7288],[-59.3069,-14.7426],[-59.2662,-14.7361],[-59.2486,-14.7694],[-59.2217,-14.7631],[-59.2306,-14.8072],[-59.2082,-14.8292],[-59.2248,-14.8733],[-59.1908,-14.9063],[-59.1724,-14.898],[-59.1592,-14.9372],[-59.1314,-14.9318],[-59.1045,-14.959],[-59.0911,-14.9495],[-59.0631,-14.9707],[-59.0242,-15.0581],[-58.994,-15.0321],[-58.9713,-15.0379],[-58.9851,-15.0077],[-58.9746,-14.9972],[-58.9573,-15.0086],[-58.9401,-15.0683],[-58.9045,-15.0457],[-58.8759,-15.1025],[-58.881,-15.1235],[-58.8567,-15.1283],[-58.822,-15.1117],[-58.7985,-15.1184],[-58.8333,-15.0989],[-58.8344,-15.0701],[-58.8512,-15.0622],[-58.8317,-15.0384],[-58.8049,-15.0419],[-58.7572,-15.097],[-58.7732,-15.0357],[-58.7632,-15.0277],[-58.7216,-15.0886],[-58.7057,-15.1674],[-58.6773,-15.1801],[-58.6607,-15.2125],[-58.6302,-15.177],[-58.6259,-15.1331],[-58.5368,-15.1228],[-58.531,-15.051],[-58.5099,-15.1003],[-58.4926,-15.0709],[-58.468,-15.0847],[-58.463,-15.0575],[-58.4236,-15.087],[-58.4044,-15.0682],[-58.4088,-15.0911],[-58.3825,-15.082],[-58.3792,-15.1012],[-58.361,-15.0994],[-58.349,-15.0699],[-58.3167,-15.1238],[-58.2877,-15.1369],[-58.3144,-15.0863],[-58.2983,-15.0642],[-58.2536,-15.084],[-58.2368,-15.1568],[-58.2051,-15.1801],[-58.2022,-15.1047],[-58.2841,-15.0475],[-58.3061,-15.0032],[-58.2652,-14.9708],[-58.2025,-14.9685],[-58.1887,-14.9447],[-58.098,-14.9167],[-58.0884,-14.8852],[-58.1401,-14.8773],[-58.1469,-14.8623],[-58.1575,-14.8825],[-58.1712,-14.874],[-58.1531,-14.8509],[-58.1646,-14.8125],[-58.1408,-14.8007],[-58.1451,-14.7743],[-58.1211,-14.7569],[-58.1264,-14.7276],[-58.1047,-14.7326],[-58.108,-14.7085],[-58.079,-14.7088],[-58.0674,-14.6849],[-58.058,-14.704],[-58.0492,-14.6955],[-58.063,-14.6562],[-58.1038,-14.6362],[-58.0443,-14.5635],[-57.9805,-14.555],[-57.9685,-14.5208],[-57.9152,-14.5192],[-57.899,-14.5012],[-57.8808,-14.511],[-57.861,-14.4593],[-57.7855,-14.4036],[-57.7699,-14.3995],[-57.7613,-14.4158],[-57.7138,-14.3957],[-57.6968,-14.4025],[-57.6709,-14.3613],[-57.6064,-14.351],[-57.5705,-14.3141],[-57.542,-14.3256],[-57.4536,-14.2988],[-57.409,-14.2283],[-57.3897,-14.2252],[-57.3841,-14.2456],[-57.368,-14.2468],[-57.2829,-14.2002],[-57.2781,-14.2125],[-57.215,-14.2008],[-57.2164,-14.2263],[-57.135,-14.1668],[-57.0953,-14.1754],[-57.0586,-14.2086],[-56.9979,-14.2102],[-56.9464,-14.1644],[-56.9109,-14.1614],[-56.8996,-14.1971],[-56.872,-14.1751],[-56.8539,-14.1931],[-56.8249,-14.1516],[-56.7894,-14.1879],[-56.7866,-14.277],[-56.7692,-14.2625],[-56.7508,-14.1905],[-56.7316,-14.1777],[-56.6533,-14.2144],[-56.6291,-14.205],[-56.6324,-14.2201],[-56.5911,-14.2219],[-56.5685,-14.2475],[-56.5306,-14.2578],[-56.5347,-14.2765],[-56.5115,-14.2739],[-56.5507,-14.3014],[-56.52,-14.3007],[-56.5403,-14.3347],[-56.502,-14.3325],[-56.5043,-14.3868],[-56.5702,-14.4187],[-56.6638,-14.4292],[-56.7061,-14.478],[-56.767,-14.4608],[-56.6733,-14.5072],[-56.6674,-14.5646],[-56.7141,-14.6174],[-56.7104,-14.6693],[-56.7302,-14.6697],[-56.725,-14.6834],[-56.7587,-14.6993],[-56.7483,-14.7497],[-56.7611,-14.7687],[-56.7835,-14.7591],[-56.7923,-14.7725],[-56.7842,-14.8094],[-56.8325,-14.9364],[-56.8857,-15.0121],[-56.9256,-15.0209],[-56.9416,-15.0486],[-57.0089,-15.0449],[-57.0358,-15.1023],[-57.0549,-15.0876],[-57.0923,-15.1162],[-57.173,-15.0973],[-57.2284,-15.1035],[-57.2121,-15.1553],[-57.1942,-15.1544],[-57.1902,-15.1715],[-57.1685,-15.1456],[-57.147,-15.1602],[-57.12,-15.1446],[-57.0851,-15.2067],[-57.0643,-15.1923],[-57.0363,-15.2334],[-57.1082,-15.3223],[-57.2207,-15.3009],[-57.2538,-15.36],[-57.2723,-15.3531],[-57.3014,-15.4462],[-57.3469,-15.4847],[-57.364,-15.5569],[-57.3859,-15.5726],[-57.4055,-15.5653],[-57.4827,-15.6505],[-57.4825,-15.7068],[-57.5086,-15.7523],[-57.5285,-15.756],[-57.528,-15.7987],[-57.6158,-15.8575],[-57.6649,-15.7199],[-57.6937,-15.6979],[-57.718,-15.7348],[-57.6577,-15.8901],[-57.6617,-15.9265],[-57.6786,-15.9391],[-57.7384,-15.8675],[-57.7821,-15.6502],[-57.8075,-15.6534],[-57.82,-15.7315],[-57.8494,-15.7077],[-57.8745,-15.7577],[-57.9372,-15.7141],[-57.9718,-15.7357],[-57.9953,-15.7934],[-58.0212,-15.8154],[-58.0075,-15.8466],[-58.038,-15.8592],[-58.0464,-15.883],[-58.0316,-15.9244],[-58.0425,-15.953],[-58.0209,-15.9819],[-58.1005,-16.0591],[-58.0352,-16.1228],[-58.041,-16.1729],[-58.002,-16.1797],[-58.0001,-16.242],[-58.0145,-16.2828],[-58.0508,-16.293],[-58.0879,-16.3631],[-58.0788,-16.4051],[-58.1546,-16.4503],[-58.1519,-16.4792],[-58.1221,-16.5129],[-58.15,-16.5618],[-58.1296,-16.616],[-58.1555,-16.6496],[-58.2065,-16.6078],[-58.2412,-16.6357],[-58.2314,-16.6559],[-58.2484,-16.662],[-58.2739,-16.6492],[-58.2703,-16.6076],[-58.2899,-16.5963],[-58.2713,-16.5645],[-58.2571,-16.5617],[-58.2457,-16.5884],[-58.2306,-16.5773],[-58.1813,-16.59],[-58.2393,-16.4534],[-58.2952,-16.4177],[-58.2637,-16.3773],[-58.2821,-16.2342],[-58.3462,-16.1888],[-58.3231,-16.1342],[-58.3526,-16.1047],[-58.3163,-16.0284],[-58.2636,-16.0235],[-58.2518,-16.0039],[-58.289,-15.9661],[-58.3041,-15.9244],[-58.3338,-15.9133],[-58.3861,-15.9424],[-58.4295,-15.9328],[-58.4597,-15.9722],[-58.4521,-16.0077],[-58.4086,-16.0284],[-58.3967,-16.0528],[-58.4337,-16.0869],[-58.4297,-16.152],[-58.453,-16.1702],[-58.4422,-16.2134],[-58.516,-16.1965],[-58.5552,-16.2408],[-58.6433,-16.1969],[-58.7243,-16.2121],[-58.7407,-16.1841],[-58.7196,-16.1306],[-58.7515,-16.1251],[-58.7462,-16.1002],[-58.7775,-16.0774],[-58.7688,-15.9539],[-58.7982,-15.9834],[-58.7987,-16.0108],[-58.8326,-16.021],[-58.8524,-16.084],[-58.8946,-16.1042],[-58.917,-16.0988],[-59.0078,-16.1462],[-59.0778,-16.1272],[-59.0918,-16.1469],[-59.088,-16.1817],[-59.1183,-16.1937],[-59.1406,-16.2345],[-59.1077,-16.2633],[-59.1005,-16.2949],[-59.0294,-16.2979],[-59.2681,-16.288],[-59.4692,-16.2796],[-59.7052,-16.2753],[-60.1741,-16.2669],[-60.2345,-15.5355],[-60.2395,-15.4746],[-60.2396,-15.4745],[-60.3368,-15.3655],[-60.5757,-15.0975],[-60.4103,-15.0975],[-60.245,-15.0975],[-60.259,-14.8638],[-60.2736,-14.621],[-60.2737,-14.621],[-60.3284,-14.577],[-60.339,-14.5114],[-60.3396,-14.5105],[-60.3396,-14.5104],[-60.3399,-14.5101],[-60.3899,-14.4383],[-60.405,-14.4022],[-60.3957,-14.3641],[-60.4062,-14.3681],[-60.4061,-14.3601],[-60.4051,-14.3576],[-60.4537,-14.3138],[-60.4664,-14.2641],[-60.4496,-14.2501],[-60.4522,-14.2438],[-60.4499,-14.2405],[-60.4544,-14.2385],[-60.4727,-14.1945],[-60.4733,-14.1911],[-60.4742,-14.191],[-60.4762,-14.1609],[-60.4755,-14.1598],[-60.4795,-14.0953],[-60.4415,-14.0787],[-60.4411,-14.0781],[-60.4406,-14.0779],[-60.4054,-14.03],[-60.4053,-14.0255],[-60.3831,-13.9929],[-60.3872,-13.9913],[-60.3817,-13.9892],[-60.4146,-13.9807],[-60.4192,-13.9702],[-60.4294,-13.9423],[-60.4326,-13.94],[-60.4341,-13.9365],[-60.4373,-13.9366],[-60.4509,-13.9268],[-60.4511,-13.9261],[-60.4513,-13.8827],[-60.4615,-13.8842],[-60.4654,-13.8687],[-60.4565,-13.8545],[-60.4691,-13.8549],[-60.4766,-13.8398],[-60.469,-13.8325],[-60.4838,-13.8253],[-60.4857,-13.8214],[-60.4658,-13.8184],[-60.4791,-13.8057],[-60.4685,-13.7939],[-60.511,-13.7936],[-60.5234,-13.7806],[-60.5201,-13.7702],[-60.5463,-13.7676],[-60.5469,-13.7704],[-60.5583,-13.7696],[-60.5759,-13.7451],[-60.5947,-13.7457],[-60.615,-13.7272],[-60.6192,-13.7176],[-60.6232,-13.7197],[-60.6235,-13.7195],[-60.6246,-13.7205],[-60.6518,-13.7346],[-60.6668,-13.7238],[-60.6898,-13.6973],[-60.6921,-13.7054],[-60.7047,-13.6963],[-60.7076,-13.6914],[-60.7098,-13.6911],[-60.7139,-13.676],[-60.686,-13.6252],[-60.6241,-13.5691],[-60.5777,-13.5652],[-60.5358,-13.5373],[-60.5109,-13.5036],[-60.4304,-13.482],[-60.3879,-13.4547],[-60.3732,-13.4123],[-60.3796,-13.3752],[-60.3716,-13.3186],[-60.3332,-13.258],[-60.3038,-13.1784],[-60.2685,-13.145],[-60.2844,-13.0848],[-60.1833,-12.9676],[-60.1172,-12.9596],[-60.1015,-12.9134],[-60.0791,-12.8811],[-60.0802,-12.8723],[-60.0739,-12.8611],[-60.0801,-12.846],[-60.0656,-12.8107],[-60.064,-12.7834],[-60.059,-12.7751],[-60.0589,-12.7538],[-60.0692,-12.745],[-60.0748,-12.7345],[-60.0612,-12.7131],[-60.0478,-12.7005],[-60.0567,-12.6979],[-60.0598,-12.6642],[-60.0289,-12.6186],[-59.9816,-12.5921],[-59.9644,-12.5958]]],[[[-60.0069,-11.8947],[-60.0659,-11.8908],[-60.0885,-11.8626],[-60.1034,-11.8192],[-60.0969,-11.7953],[-60.1124,-11.7593],[-60.1224,-11.6824],[-60.1099,-11.6155],[-60.1149,-11.5915],[-60.0942,-11.5628],[-60.0575,-11.5421],[-60.0313,-11.497],[-59.9854,-11.4693],[-59.9762,-11.4392],[-59.9344,-11.4237],[-59.9206,-11.398],[-59.9172,-11.3384],[-59.9271,-11.3113],[-59.9595,-11.2947],[-59.9797,-11.2395],[-59.995,-11.1482],[-60.075,-11.105],[-60.1764,-11.0988],[-60.1915,-11.1141],[-60.2808,-11.0915],[-60.3012,-11.0572],[-60.342,-11.0826],[-60.35,-11.1083],[-60.3916,-11.0938],[-60.4115,-11.0468],[-60.4297,-11.0375],[-60.4601,-10.9899],[-61.0006,-10.9884],[-61.0006,-10.9922],[-61.429,-10.9875],[-61.5503,-10.9861],[-61.5301,-10.979],[-61.5205,-10.9194],[-61.5251,-10.8558],[-61.509,-10.8322],[-61.5053,-10.7848],[-61.4796,-10.7877],[-61.4764,-10.7225],[-61.4994,-10.6986],[-61.4845,-10.6738],[-61.4762,-10.6077],[-61.4808,-10.4877],[-61.4618,-10.4199],[-61.5031,-10.3759],[-61.5017,-10.3538],[-61.5301,-10.3333],[-61.5767,-10.2486],[-61.574,-10.209],[-61.5578,-10.1823],[-61.6012,-10.1501],[-61.5717,-10.0465],[-61.5402,-10.0002],[-61.5228,-9.9467],[-61.525,-9.9066],[-61.5079,-9.8611],[-61.5249,-9.7957],[-61.5462,-9.7848],[-61.5315,-9.7399],[-61.5746,-9.7178],[-61.5324,-9.7118],[-61.5021,-9.6828],[-61.477,-9.6299],[-61.4969,-9.6241],[-61.4965,-9.5744],[-61.508,-9.5405],[-61.5491,-9.5125],[-61.5817,-9.4591],[-61.5567,-9.4356],[-61.5589,-9.3855],[-61.6279,-9.3516],[-61.6162,-9.3268],[-61.5996,-9.256],[-61.5684,-9.2371],[-61.5249,-9.2429],[-61.5236,-9.179],[-61.5554,-9.1315],[-61.5558,-9.0924],[-61.5057,-8.9662],[-61.4692,-8.9201],[-61.5125,-8.8606],[-61.5137,-8.837],[-61.5831,-8.7987],[-61.3104,-8.7985],[-60.8352,-8.7981],[-60.4202,-8.7966],[-60.0005,-8.8009],[-59.4814,-8.8033],[-59.1274,-8.8033],[-58.9628,-8.8028],[-58.4419,-8.7987],[-58.388,-8.7748],[-58.3284,-8.7122],[-58.3759,-8.7037],[-58.412,-8.7206],[-58.4373,-8.7034],[-58.3895,-8.5948],[-58.4105,-8.5704],[-58.4051,-8.5376],[-58.4178,-8.4895],[-58.3902,-8.439],[-58.3546,-8.3928],[-58.3448,-8.3407],[-58.3149,-8.3231],[-58.3281,-8.2858],[-58.3129,-8.2091],[-58.3225,-8.17],[-58.2902,-8.1356],[-58.2931,-8.0709],[-58.3217,-8.025],[-58.3315,-7.9688],[-58.355,-7.944],[-58.3751,-7.899],[-58.3782,-7.8274],[-58.3004,-7.7775],[-58.276,-7.6997],[-58.2398,-7.6536],[-58.2022,-7.6209],[-58.2227,-7.524],[-58.2131,-7.4585],[-58.1734,-7.3944],[-58.1371,-7.3561],[-58.1214,-7.3518],[-58.0614,-7.3952],[-58.0398,-7.4463],[-58.0022,-7.4881],[-57.9521,-7.5801],[-57.9344,-7.6568],[-57.8967,-7.6779],[-57.8796,-7.7819],[-57.835,-7.8814],[-57.8319,-7.9615],[-57.7765,-8.0522],[-57.7325,-8.0892],[-57.7187,-8.1512],[-57.6729,-8.1726],[-57.6417,-8.2199],[-57.6802,-8.3269],[-57.6678,-8.3639],[-57.6866,-8.407],[-57.6831,-8.4301],[-57.6518,-8.4788],[-57.6591,-8.5004],[-57.6334,-8.5268],[-57.6505,-8.5534],[-57.6222,-8.5912],[-57.6226,-8.645],[-57.6053,-8.6628],[-57.5936,-8.7074],[-57.5929,-8.7565],[-57.5624,-8.7613],[-57.523,-8.7497],[-57.4635,-8.7847],[-57.4175,-8.7926],[-57.4162,-8.859],[-57.3844,-8.8796],[-57.3179,-8.8857],[-57.2895,-8.9158],[-57.2355,-8.9074],[-57.2038,-8.9208],[-57.1383,-8.9946],[-57.0946,-9.0171],[-57.0392,-9.0983],[-57.0604,-9.1371],[-57.0598,-9.1824],[-56.9955,-9.2338],[-56.9417,-9.2293],[-56.8201,-9.2463],[-56.7755,-9.3295],[-56.7723,-9.391],[-56.7543,-9.4064],[-56.7084,-9.3732],[-56.6719,-9.3674],[-56.2723,-9.4008],[-56.1565,-9.4104],[-55.8672,-9.4343],[-55.3779,-9.4743],[-54.9956,-9.5053],[-54.6135,-9.5358],[-54.1068,-9.5719],[-53.5891,-9.611],[-53.1334,-9.6452],[-52.6193,-9.6823],[-52.2567,-9.7077],[-51.7243,-9.7446],[-51.3043,-9.7729],[-50.846,-9.8006],[-50.5006,-9.824],[-50.344,-9.8338],[-50.3445,-9.8472],[-50.3892,-9.8488],[-50.3917,-9.8713],[-50.3484,-9.8878],[-50.3566,-9.9253],[-50.3731,-9.9495],[-50.3904,-9.9407],[-50.3946,-9.9859],[-50.4355,-9.9652],[-50.4405,-9.9774],[-50.3993,-10.012],[-50.3997,-10.0484],[-50.4486,-10.044],[-50.5576,-10.1035],[-50.4949,-10.1093],[-50.4965,-10.1441],[-50.4712,-10.163],[-50.4743,-10.1865],[-50.4258,-10.2066],[-50.4319,-10.2356],[-50.4548,-10.2484],[-50.4751,-10.2221],[-50.4978,-10.2524],[-50.5183,-10.2195],[-50.5748,-10.2566],[-50.5806,-10.3002],[-50.554,-10.3477],[-50.5655,-10.3554],[-50.5537,-10.3722],[-50.5697,-10.3827],[-50.6869,-10.3767],[-50.664,-10.3963],[-50.6946,-10.3966],[-50.6941,-10.4302],[-50.663,-10.431],[-50.6514,-10.4519],[-50.6292,-10.4402],[-50.6076,-10.4891],[-50.541,-10.5033],[-50.5464,-10.5279],[-50.6092,-10.6125],[-50.6711,-10.6295],[-50.6695,-10.6525],[-50.6992,-10.6424],[-50.7016,-10.6139],[-50.7229,-10.6035],[-50.7434,-10.6167],[-50.7307,-10.6388],[-50.8137,-10.6509],[-50.8521,-10.6755],[-50.8531,-10.703],[-50.883,-10.7104],[-50.8912,-10.6623],[-50.914,-10.6438],[-50.9233,-10.6546],[-50.906,-10.6668],[-50.9309,-10.6944],[-50.9168,-10.7092],[-50.9469,-10.727],[-50.9402,-10.7128],[-50.9622,-10.6815],[-50.9873,-10.6914],[-51.023,-10.6628],[-51.0063,-10.7628],[-51.0445,-10.685],[-51.0785,-10.6879],[-51.126,-10.7365],[-51.1566,-10.6665],[-51.1864,-10.6669],[-51.1622,-10.7],[-51.1659,-10.7198],[-51.2206,-10.6825],[-51.1873,-10.7415],[-51.1617,-10.7508],[-51.1249,-10.8297],[-51.1649,-10.8355],[-51.1946,-10.8792],[-51.2671,-10.9068],[-51.3197,-10.8844],[-51.3509,-10.8453],[-51.3389,-10.7989],[-51.361,-10.805],[-51.3689,-10.7918],[-51.3486,-10.7535],[-51.406,-10.7398],[-51.4425,-10.7813],[-51.4728,-10.7633],[-51.4935,-10.782],[-51.5193,-10.7246],[-51.5511,-10.7249],[-51.5749,-10.8205],[-51.5921,-10.7957],[-51.6191,-10.8061],[-51.636,-10.7565],[-51.6496,-10.8504],[-51.7048,-10.7412],[-51.8199,-10.7258],[-51.8965,-10.7577],[-51.9052,-10.7755],[-51.8537,-10.8525],[-51.8654,-10.9096],[-51.8969,-10.9474],[-51.8514,-11.0082],[-51.8526,-11.04],[-51.7875,-11.0389],[-51.7559,-11.1332],[-51.7227,-11.1438],[-51.711,-11.1725],[-51.7201,-11.2223],[-51.7094,-11.2416],[-51.6865,-11.25],[-51.682,-11.2215],[-51.6182,-11.201],[-51.5635,-11.207],[-51.5702,-11.2458],[-51.608,-11.2658],[-51.5433,-11.2556],[-51.524,-11.2758],[-51.562,-11.3383],[-51.5236,-11.3172],[-51.5186,-11.3675],[-51.491,-11.3402],[-51.4826,-11.3727],[-51.4518,-11.3678],[-51.4518,-11.3847],[-51.4777,-11.3924],[-51.4771,-11.4143],[-51.4601,-11.3972],[-51.4364,-11.4217],[-51.3993,-11.3932],[-51.422,-11.4575],[-51.4502,-11.4848],[-51.4374,-11.5026],[-51.3539,-11.485],[-51.3336,-11.4648],[-51.3097,-11.4891],[-51.305,-11.4649],[-51.2828,-11.4703],[-51.3012,-11.5062],[-51.2827,-11.5087],[-51.2846,-11.559],[-51.3027,-11.5848],[-51.3178,-11.5999],[-51.3657,-11.5975],[-51.3618,-11.6503],[-51.3855,-11.6724],[-51.4547,-11.6771],[-51.5392,-11.7263],[-51.5502,-11.8158],[-51.4821,-11.8751],[-51.416,-11.8599],[-51.3889,-11.8765],[-51.4017,-11.9519],[-51.3793,-11.9938],[-51.3715,-12.0765],[-51.3873,-12.0903],[-51.3797,-12.1055],[-51.416,-12.1202],[-51.422,-12.1442],[-51.3944,-12.1524],[-51.401,-12.1677],[-51.3787,-12.2136],[-51.3277,-12.2645],[-51.3352,-12.2787],[-51.3015,-12.3012],[-51.2271,-12.2507],[-51.201,-12.2766],[-51.2298,-12.2914],[-51.2293,-12.3235],[-51.1749,-12.2991],[-51.1718,-12.2746],[-51.0444,-12.245],[-51.0282,-12.2567],[-51.0455,-12.2661],[-51.0361,-12.2859],[-51.0601,-12.2976],[-51.0581,-12.317],[-51.1307,-12.3135],[-51.1535,-12.3348],[-51.1051,-12.3307],[-51.088,-12.3486],[-51.0346,-12.337],[-51.0432,-12.3902],[-51.0888,-12.4315],[-51.1832,-12.3905],[-51.1552,-12.4342],[-51.1668,-12.449],[-51.2725,-12.4089],[-51.3014,-12.3816],[-51.3616,-12.399],[-51.3754,-12.4252],[-51.4281,-12.4273],[-51.4609,-12.4486],[-51.5199,-12.5698],[-51.5473,-12.5801],[-51.5655,-12.6128],[-51.5528,-12.6371],[-51.5161,-12.6489],[-51.5663,-12.6771],[-51.5838,-12.7098],[-51.7494,-12.7261],[-51.7348,-12.7986],[-51.7449,-12.8138],[-51.796,-12.8183],[-51.7859,-12.8552],[-51.8788,-12.8648],[-51.9136,-12.9946],[-51.9375,-13.0049],[-51.9178,-13.0231],[-51.9316,-13.0537],[-51.9731,-13.0517],[-51.9882,-13.0737],[-52.0101,-13.0637],[-51.9948,-13.0152],[-52.0336,-12.9612],[-52.0468,-13.0011],[-52.1347,-13.0013],[-52.1462,-12.9877],[-52.1863,-12.9987],[-52.211,-13.0765],[-52.1932,-13.1027],[-52.2219,-13.1146],[-52.2191,-13.1767],[-52.2704,-13.2711],[-52.2505,-13.4131],[-52.3352,-13.3161],[-52.3149,-13.2922],[-52.3316,-13.2501],[-52.3928,-13.2265],[-52.406,-13.2366],[-52.4004,-13.283],[-52.4853,-13.3391],[-52.5017,-13.3242],[-52.5601,-13.3482],[-52.5834,-13.3261],[-52.6116,-13.346],[-52.607,-13.3703],[-52.6326,-13.393],[-52.7186,-13.4053],[-52.7405,-13.4312],[-52.8495,-13.466],[-52.8697,-13.4057],[-52.9034,-13.3972],[-52.891,-13.372],[-52.9387,-13.336],[-52.9471,-13.3903],[-52.9075,-13.4353],[-52.949,-13.4187],[-52.9303,-13.4783],[-52.9404,-13.4864],[-52.96,-13.4678],[-53.0279,-13.478],[-53.0341,-13.4509],[-53.0461,-13.4512],[-53.0689,-13.4879],[-53.0769,-13.6221],[-53.0967,-13.6648],[-53.1072,-13.6478],[-53.1338,-13.6657],[-53.1646,-13.6501],[-53.1837,-13.6192],[-53.145,-13.6037],[-53.1565,-13.5874],[-53.2296,-13.6053],[-53.2285,-13.5677],[-53.1951,-13.5588],[-53.2383,-13.5311],[-53.2362,-13.5024],[-53.2654,-13.482],[-53.288,-13.4861],[-53.3361,-13.4205],[-53.3874,-13.4234],[-53.3991,-13.4104],[-53.4058,-13.4609],[-53.4344,-13.4858],[-53.4167,-13.5138],[-53.4762,-13.5757],[-53.4708,-13.5918],[-53.4463,-13.5956],[-53.4962,-13.6457],[-53.5351,-13.6569],[-53.537,-13.6727],[-53.602,-13.6638],[-53.6165,-13.6068],[-53.5853,-13.5629],[-53.624,-13.5681],[-53.6761,-13.5195],[-53.7055,-13.5659],[-53.7545,-13.5892],[-53.7803,-13.5909],[-53.7914,-13.5357],[-53.8411,-13.555],[-53.8729,-13.5741],[-53.8815,-13.6067],[-53.9122,-13.6145],[-53.9136,-13.6312],[-53.9381,-13.6304],[-53.9241,-13.6518],[-53.9366,-13.6713],[-53.9488,-13.627],[-53.9657,-13.6178],[-53.9914,-13.7303],[-54.0068,-13.7186],[-54.0081,-13.6248],[-54.0289,-13.5799],[-54.0514,-13.5668],[-54.0829,-13.5772],[-54.101,-13.566],[-54.1256,-13.5925],[-54.1797,-13.5725],[-54.2033,-13.5816],[-54.2503,-13.6483],[-54.2496,-13.6966],[-54.2729,-13.6866],[-54.2916,-13.7064],[-54.3262,-13.7096],[-54.3343,-13.6447],[-54.3796,-13.5998],[-54.3792,-13.5665],[-54.3971,-13.5743],[-54.4161,-13.5529],[-54.456,-13.5734],[-54.4747,-13.5595],[-54.4818,-13.5066],[-54.5116,-13.4821],[-54.5073,-13.4461],[-54.5342,-13.4346],[-54.5329,-13.3972],[-54.566,-13.3976],[-54.5566,-13.3454],[-54.6037,-13.393],[-54.6315,-13.3589],[-54.6737,-13.3581],[-54.727,-13.3111],[-54.8098,-13.3656],[-54.846,-13.3602],[-54.8768,-13.3343],[-54.8928,-13.3467],[-54.8942,-13.2927],[-54.9386,-13.3475],[-54.9546,-13.329],[-54.9827,-13.3321],[-54.9747,-13.291],[-55.0425,-13.3071],[-55.1046,-13.2872],[-55.1281,-13.2941],[-55.1536,-13.3456],[-55.1744,-13.3401],[-55.1933,-13.2944],[-55.1545,-13.2485],[-55.1822,-13.2196],[-55.1499,-13.1286],[-55.1656,-13.0938],[-55.1837,-13.1188],[-55.2325,-13.0981],[-55.2522,-13.0479],[-55.2856,-13.0257],[-55.2745,-12.9693],[-55.3384,-12.975],[-55.3613,-13.0152],[-55.3926,-12.9519],[-55.428,-12.9449],[-55.4465,-12.9091],[-55.4813,-12.8999],[-55.4979,-12.8779],[-55.5067,-12.8508],[-55.4827,-12.7709],[-55.487,-12.7145],[-55.5667,-12.6451],[-55.5842,-12.6034],[-55.5698,-12.5313],[-55.5316,-12.472],[-55.5986,-12.4193],[-55.6005,-12.3305],[-55.6522,-12.3375],[-55.7207,-12.4153],[-55.7654,-12.4083],[-55.7651,-12.458],[-55.794,-12.4845],[-55.8618,-12.4959],[-55.9254,-12.5392],[-56.0904,-12.5045],[-56.077,-12.5572],[-56.0131,-12.5597],[-56.0231,-12.5959],[-55.9656,-12.6173],[-55.9214,-12.6565],[-55.9325,-12.6925],[-55.9836,-12.6731],[-56.0904,-12.6838],[-56.1263,-12.6086],[-56.1514,-12.6077],[-56.1435,-12.537],[-56.1807,-12.5247],[-56.2043,-12.4768],[-56.146,-12.4059],[-56.1827,-12.3985],[-56.2122,-12.3591],[-56.1803,-12.3451],[-56.1337,-12.2757],[-56.1379,-12.2511],[-56.1059,-12.236],[-56.1113,-12.2141],[-56.0923,-12.2124],[-56.0984,-12.1759],[-56.0304,-12.1687],[-55.9983,-12.1447],[-56.0029,-12.1177],[-56.0779,-12.1413],[-56.1085,-12.1076],[-56.1294,-12.1148],[-56.1928,-12.1969],[-56.1683,-12.2468],[-56.2225,-12.2296],[-56.254,-12.2948],[-56.2412,-12.3257],[-56.2682,-12.362],[-56.2624,-12.3869],[-56.281,-12.3978],[-56.2496,-12.4284],[-56.2642,-12.4695],[-56.2428,-12.4927],[-56.2765,-12.5346],[-56.2775,-12.5757],[-56.3686,-12.6244],[-56.3775,-12.6822],[-56.4106,-12.7148],[-56.4002,-12.7701],[-56.4443,-12.7926],[-56.4337,-12.8177],[-56.4492,-12.8349],[-56.4641,-12.8163],[-56.4805,-12.8647],[-56.45,-12.8746],[-56.4645,-12.9275],[-56.4303,-12.905],[-56.3963,-12.9192],[-56.3689,-12.9118],[-56.3256,-12.9911],[-56.257,-13.0305],[-56.2217,-13.0232],[-56.1941,-13.0541],[-56.2178,-13.0957],[-56.1969,-13.1086],[-56.2245,-13.1171],[-56.2346,-13.1763],[-56.287,-13.2236],[-56.2982,-13.2609],[-56.3318,-13.2246],[-56.363,-13.2291],[-56.3468,-13.1988],[-56.3722,-13.1901],[-56.3796,-13.2142],[-56.4213,-13.2383],[-56.4098,-13.2746],[-56.4838,-13.3209],[-56.4736,-13.3501],[-56.4904,-13.3667],[-56.4482,-13.3962],[-56.4504,-13.4241],[-56.4083,-13.4456],[-56.3616,-13.5438],[-56.3465,-13.5393],[-56.344,-13.5173],[-56.3653,-13.4707],[-56.3267,-13.4437],[-56.3155,-13.4491],[-56.3292,-13.4848],[-56.2858,-13.5194],[-56.2549,-13.5032],[-56.1849,-13.5116],[-56.1806,-13.4887],[-56.1133,-13.5115],[-56.1069,-13.5226],[-56.1491,-13.5619],[-56.0986,-13.5536],[-56.0595,-13.582],[-56.0681,-13.6122],[-56.0332,-13.6141],[-56.056,-13.6413],[-56.0861,-13.5961],[-56.1136,-13.6051],[-56.1132,-13.6312],[-56.0925,-13.6448],[-56.1034,-13.661],[-56.092,-13.6935],[-56.0481,-13.6762],[-56.0476,-13.6995],[-56.0708,-13.7022],[-56.0519,-13.7458],[-56.0286,-13.7038],[-56.0205,-13.7245],[-55.9727,-13.7377],[-55.9965,-13.7512],[-55.9879,-13.7699],[-56.0012,-13.7968],[-56.0523,-13.7647],[-56.0839,-13.8154],[-56.1104,-13.8145],[-56.1166,-13.7742],[-56.1716,-13.7652],[-56.154,-13.726],[-56.2113,-13.6648],[-56.2271,-13.6851],[-56.2125,-13.7384],[-56.2645,-13.7751],[-56.2401,-13.823],[-56.2803,-13.8227],[-56.3372,-13.8595],[-56.3804,-13.855],[-56.4197,-13.829],[-56.4298,-13.7714],[-56.4608,-13.7382],[-56.4574,-13.6784],[-56.4838,-13.6766],[-56.4761,-13.6385],[-56.4919,-13.6351],[-56.4916,-13.6006],[-56.5455,-13.5887],[-56.571,-13.6384],[-56.6394,-13.6667],[-56.6189,-13.7062],[-56.5902,-13.715],[-56.6345,-13.7363],[-56.6474,-13.8025],[-56.6649,-13.8179],[-56.6903,-13.8143],[-56.6931,-13.8469],[-56.7085,-13.8557],[-56.6886,-13.8823],[-56.6778,-13.8657],[-56.6256,-13.8687],[-56.6024,-13.8535],[-56.5764,-13.8812],[-56.5782,-13.919],[-56.6227,-13.9331],[-56.6282,-13.9527],[-56.6425,-13.9354],[-56.7069,-13.949],[-56.6399,-14.0027],[-56.6406,-14.0205],[-56.7192,-14.0777],[-56.7559,-14.0729],[-56.7641,-14.0169],[-56.828,-14.0273],[-56.9126,-13.9496],[-56.9769,-13.9425],[-57.0214,-13.9662],[-57.0084,-13.941],[-56.9772,-13.9296],[-56.9155,-13.9315],[-56.8647,-13.9594],[-56.8473,-13.9562],[-56.8361,-13.9284],[-56.8102,-13.9444],[-56.8076,-13.9074],[-56.8411,-13.9068],[-56.8431,-13.876],[-56.8673,-13.8874],[-56.8636,-13.8594],[-56.887,-13.8459],[-56.934,-13.8607],[-56.9362,-13.8845],[-56.9968,-13.8807],[-56.9423,-13.823],[-56.9522,-13.7996],[-56.9822,-13.8107],[-56.9724,-13.7836],[-56.8992,-13.7849],[-56.8778,-13.7565],[-56.8254,-13.741],[-56.821,-13.71],[-56.8647,-13.7189],[-56.863,-13.6869],[-56.8888,-13.6711],[-56.9256,-13.6758],[-56.9293,-13.6481],[-56.9631,-13.6707],[-56.9578,-13.6396],[-56.9861,-13.6167],[-56.9979,-13.6589],[-57.0332,-13.6696],[-57.043,-13.691],[-57.0578,-13.6901],[-57.0516,-13.6603],[-57.0978,-13.6347],[-57.1186,-13.6866],[-57.1918,-13.7171],[-57.2081,-13.7041],[-57.1747,-13.6773],[-57.183,-13.6515],[-57.156,-13.6604],[-57.1438,-13.6374],[-57.2083,-13.6145],[-57.2285,-13.5674],[-57.2328,-13.6112],[-57.2639,-13.6214],[-57.2697,-13.682],[-57.307,-13.7149],[-57.314,-13.69],[-57.2836,-13.6561],[-57.2766,-13.6154],[-57.3314,-13.594],[-57.3253,-13.514],[-57.3628,-13.5117],[-57.385,-13.4684],[-57.4108,-13.5248],[-57.4571,-13.5396],[-57.4384,-13.5036],[-57.4695,-13.4814],[-57.4848,-13.427],[-57.512,-13.4048],[-57.495,-13.3702],[-57.5072,-13.3347],[-57.5493,-13.3451],[-57.5507,-13.2855],[-57.5931,-13.2904],[-57.6522,-13.2621],[-57.6815,-13.2183],[-57.7077,-13.2217],[-57.7161,-13.2508],[-57.7453,-13.2614],[-57.7446,-13.2304],[-57.7253,-13.2111],[-57.7548,-13.2049],[-57.7622,-13.18],[-57.72,-13.138],[-57.7779,-13.0738],[-57.7639,-13.0513],[-57.7807,-13.0298],[-57.8053,-13.0166],[-57.8307,-13.035],[-57.8658,-13.0246],[-57.8814,-13.0563],[-57.8283,-13.0992],[-57.8915,-13.0931],[-57.9211,-13.1193],[-57.9525,-13.0965],[-57.9476,-13.0702],[-57.9992,-13.0694],[-57.9871,-13.0444],[-58.0032,-13.011],[-58.0291,-13.0065],[-58.0117,-12.9949],[-58.0151,-12.9767],[-57.9806,-12.9738],[-57.9709,-12.9505],[-57.9967,-12.9354],[-58.0302,-12.945],[-58.0313,-12.925],[-57.9924,-12.9209],[-57.9421,-12.8883],[-57.9419,-12.8626],[-58.0022,-12.8381],[-57.9775,-12.8139],[-57.9327,-12.8077],[-57.9681,-12.7869],[-57.9258,-12.753],[-57.9778,-12.7477],[-58.0312,-12.7741],[-58.0307,-12.7478],[-57.9306,-12.7201],[-57.9367,-12.6876],[-57.9746,-12.6991],[-57.9161,-12.6615],[-57.8794,-12.7158],[-57.8427,-12.6428],[-57.8031,-12.6455],[-57.7763,-12.6666],[-57.7631,-12.6136],[-57.7967,-12.6192],[-57.8018,-12.6082],[-57.7711,-12.5821],[-57.7941,-12.5116],[-57.775,-12.4845],[-57.7932,-12.4546],[-57.8281,-12.4603],[-57.8237,-12.4222],[-57.8559,-12.4117],[-57.8799,-12.4539],[-57.8646,-12.5323],[-57.897,-12.5404],[-57.9026,-12.4835],[-57.9296,-12.4779],[-57.9187,-12.4328],[-57.9387,-12.4457],[-57.9578,-12.4243],[-57.9821,-12.4297],[-57.9574,-12.386],[-57.9798,-12.3747],[-57.98,-12.3543],[-57.9948,-12.3518],[-57.9919,-12.3808],[-58.0227,-12.3992],[-58.0451,-12.3671],[-58.0336,-12.3478],[-58.0854,-12.3222],[-58.1059,-12.3456],[-58.1566,-12.3528],[-58.1851,-12.4027],[-58.218,-12.4051],[-58.215,-12.4686],[-58.2302,-12.4866],[-58.2646,-12.4745],[-58.264,-12.4481],[-58.3033,-12.4068],[-58.3492,-12.4226],[-58.3679,-12.4663],[-58.3896,-12.4573],[-58.4033,-12.425],[-58.3807,-12.3626],[-58.424,-12.3253],[-58.3833,-12.2759],[-58.4364,-12.199],[-58.3978,-12.1691],[-58.4652,-12.1306],[-58.4522,-12.11],[-58.4589,-12.0808],[-58.4325,-12.0547],[-58.428,-11.9998],[-58.4443,-11.9644],[-58.4751,-11.9509],[-58.4978,-11.9595],[-58.5793,-12.0532],[-58.6376,-12.0885],[-58.674,-12.0908],[-58.6826,-12.1196],[-58.7389,-12.0966],[-58.8053,-12.1013],[-58.795,-12.0737],[-58.8123,-12.0875],[-58.8257,-12.0796],[-58.8303,-12.103],[-58.8474,-12.1052],[-58.8438,-12.0858],[-58.8615,-12.0914],[-58.8813,-12.0712],[-58.9131,-12.0809],[-58.9066,-12.0487],[-58.932,-12.0625],[-58.9481,-12.0248],[-59.0067,-12.0124],[-59.0384,-11.9842],[-59.1108,-11.9949],[-59.2165,-11.9508],[-59.2502,-11.9132],[-59.2333,-11.8885],[-59.2541,-11.8971],[-59.2804,-11.8841],[-59.2803,-11.8575],[-59.3172,-11.8883],[-59.3749,-11.8764],[-59.3772,-11.9132],[-59.4113,-11.9185],[-59.3753,-11.9516],[-59.3488,-11.948],[-59.3505,-11.9892],[-59.3806,-12.0174],[-59.45,-12.0067],[-59.4543,-12.0413],[-59.5145,-12.0232],[-59.4989,-11.977],[-59.525,-11.9944],[-59.5422,-11.96],[-59.5559,-11.9932],[-59.5774,-11.9865],[-59.5876,-12.0161],[-59.6054,-12.0096],[-59.6303,-12.0368],[-59.6235,-11.9843],[-59.638,-11.9778],[-59.637,-11.9975],[-59.655,-11.9954],[-59.6679,-11.9456],[-59.6763,-11.9823],[-59.6467,-12.0561],[-59.6629,-12.0604],[-59.6955,-12.0107],[-59.7253,-12.0373],[-59.76,-12.0106],[-59.7981,-12.0265],[-59.8146,-12.0074],[-59.8181,-11.9654],[-59.7358,-11.9217],[-59.7409,-11.8767],[-59.773,-11.8832],[-59.7762,-11.859],[-59.8025,-11.8702],[-59.8354,-11.8604],[-59.825,-11.8397],[-59.8505,-11.822],[-59.8727,-11.8669],[-59.8816,-11.8391],[-59.8999,-11.8527],[-59.9712,-11.8016],[-59.983,-11.8083],[-59.9649,-11.8325],[-59.9361,-11.8446],[-59.9451,-11.8897],[-59.9895,-11.9071],[-59.9753,-11.9183],[-59.9827,-11.9599],[-59.9702,-11.9684],[-59.9682,-11.9993],[-59.9714,-11.9699],[-59.987,-11.9601],[-59.9842,-11.9148],[-60.0069,-11.8947]]]]}},{"type":"Feature","properties":{"bioma":"Cerrado"},"geometry":{"type":"MultiPolygon","coordinates":[[[[-59.9477,-12.5993],[-59.8961,-12.5364],[-59.8982,-12.5016],[-59.8442,-12.4672],[-59.8425,-12.4248],[-59.8193,-12.3787],[-59.7794,-12.3415],[-59.8868,-12.2451],[-59.9108,-12.1865],[-59.8996,-12.1663],[-59.8998,-12.1172],[-59.9293,-12.0785],[-59.962,-12.0564],[-59.9682,-11.9993],[-59.9702,-11.9684],[-59.9827,-11.9599],[-59.9753,-11.9183],[-59.9895,-11.9071],[-59.9451,-11.8897],[-59.9361,-11.8446],[-59.9649,-11.8325],[-59.983,-11.8083],[-59.9712,-11.8016],[-59.8999,-11.8527],[-59.8816,-11.8391],[-59.8727,-11.8669],[-59.8505,-11.822],[-59.825,-11.8397],[-59.8354,-11.8604],[-59.8025,-11.8702],[-59.7762,-11.859],[-59.773,-11.8832],[-59.7409,-11.8767],[-59.7358,-11.9217],[-59.8181,-11.9654],[-59.8146,-12.0074],[-59.7981,-12.0265],[-59.76,-12.0106],[-59.7253,-12.0373],[-59.6955,-12.0107],[-59.6629,-12.0604],[-59.6467,-12.0561],[-59.6763,-11.9823],[-59.6679,-11.9456],[-59.655,-11.9954],[-59.637,-11.9975],[-59.638,-11.9778],[-59.6235,-11.9843],[-59.6303,-12.0368],[-59.6054,-12.0096],[-59.5876,-12.0161],[-59.5774,-11.9865],[-59.5559,-11.9932],[-59.5422,-11.96],[-59.525,-11.9944],[-59.4989,-11.977],[-59.5145,-12.0232],[-59.4543,-12.0413],[-59.45,-12.0067],[-59.3806,-12.0174],[-59.3505,-11.9892],[-59.3488,-11.948],[-59.3753,-11.9516],[-59.4113,-11.9185],[-59.3772,-11.9132],[-59.3749,-11.8764],[-59.3172,-11.8883],[-59.2803,-11.8575],[-59.2804,-11.8841],[-59.2541,-11.8971],[-59.2333,-11.8885],[-59.2502,-11.9132],[-59.2165,-11.9508],[-59.1108,-11.9949],[-59.0384,-11.9842],[-59.0067,-12.0124],[-58.9481,-12.0248],[-58.932,-12.0625],[-58.9066,-12.0487],[-58.9131,-12.0809],[-58.8813,-12.0712],[-58.8615,-12.0914],[-58.8438,-12.0858],[-58.8474,-12.1052],[-58.8303,-12.103],[-58.8257,-12.0796],[-58.8123,-12.0875],[-58.795,-12.0737],[-58.8053,-12.1013],[-58.7389,-12.0966],[-58.6826,-12.1196],[-58.674,-12.0908],[-58.6376,-12.0885],[-58.5793,-12.0532],[-58.4978,-11.9595],[-58.4751,-11.9509],[-58.4443,-11.9644],[-58.428,-11.9998],[-58.4325,-12.0547],[-58.4589,-12.0808],[-58.4522,-12.11],[-58.4652,-12.1306],[-58.3978,-12.1691],[-58.4364,-12.199],[-58.3833,-12.2759],[-58.424,-12.3253],[-58.3807,-12.3626],[-58.4033,-12.425],[-58.3896,-12.4573],[-58.3679,-12.4663],[-58.3492,-12.4226],[-58.3033,-12.4068],[-58.264,-12.4481],[-58.2646,-12.4745],[-58.2302,-12.4866],[-58.215,-12.4686],[-58.218,-12.4051],[-58.1851,-12.4027],[-58.1566,-12.3528],[-58.1059,-12.3456],[-58.0854,-12.3222],[-58.0336,-12.3478],[-58.0451,-12.3671],[-58.0227,-12.3992],[-57.9919,-12.3808],[-57.9948,-12.3518],[-57.98,-12.3543],[-57.9798,-12.3747],[-57.9574,-12.386],[-57.9821,-12.4297],[-57.9578,-12.4243],[-57.9387,-12.4457],[-57.9187,-12.4328],[-57.9296,-12.4779],[-57.9026,-12.4835],[-57.897,-12.5404],[-57.8646,-12.5323],[-57.8799,-12.4539],[-57.8559,-12.4117],[-57.8237,-12.4222],[-57.8281,-12.4603],[-57.7932,-12.4546],[-57.775,-12.4845],[-57.7941,-12.5116],[-57.7711,-12.5821],[-57.8018,-12.6082],[-57.7967,-12.6192],[-57.7631,-12.6136],[-57.7763,-12.6666],[-57.8031,-12.6455],[-57.8427,-12.6428],[-57.8794,-12.7158],[-57.9161,-12.6615],[-57.9746,-12.6991],[-57.9367,-12.6876],[-57.9306,-12.7201],[-58.0307,-12.7478],[-58.0312,-12.7741],[-57.9778,-12.7477],[-57.9258,-12.753],[-57.9681,-12.7869],[-57.9327,-12.8077],[-57.9775,-12.8139],[-58.0022,-12.8381],[-57.9419,-12.8626],[-57.9421,-12.8883],[-57.9924,-12.9209],[-58.0313,-12.925],[-58.0302,-12.945],[-57.9967,-12.9354],[-57.9709,-12.9505],[-57.9806,-12.9738],[-58.0151,-12.9767],[-58.0117,-12.9949],[-58.0291,-13.0065],[-58.0032,-13.011],[-57.9871,-13.0444],[-57.9992,-13.0694],[-57.9476,-13.0702],[-57.9525,-13.0965],[-57.9211,-13.1193],[-57.8915,-13.0931],[-57.8283,-13.0992],[-57.8814,-13.0563],[-57.8658,-13.0246],[-57.8307,-13.035],[-57.8053,-13.0166],[-57.7807,-13.0298],[-57.7639,-13.0513],[-57.7779,-13.0738],[-57.72,-13.138],[-57.7622,-13.18],[-57.7548,-13.2049],[-57.7253,-13.2111],[-57.7446,-13.2304],[-57.7453,-13.2614],[-57.7161,-13.2508],[-57.7077,-13.2217],[-57.6815,-13.2183],[-57.6522,-13.2621],[-57.5931,-13.2904],[-57.5507,-13.2855],[-57.5493,-13.3451],[-57.5072,-13.3347],[-57.495,-13.3702],[-57.512,-13.4048],[-57.4848,-13.427],[-57.4695,-13.4814],[-57.4384,-13.5036],[-57.4571,-13.5396],[-57.4108,-13.5248],[-57.385,-13.4684],[-57.3628,-13.5117],[-57.3253,-13.514],[-57.3314,-13.594],[-57.2766,-13.6154],[-57.2836,-13.6561],[-57.314,-13.69],[-57.307,-13.7149],[-57.2697,-13.682],[-57.2639,-13.6214],[-57.2328,-13.6112],[-57.2285,-13.5674],[-57.2083,-13.6145],[-57.1438,-13.6374],[-57.156,-13.6604],[-57.183,-13.6515],[-57.1747,-13.6773],[-57.2081,-13.7041],[-57.1918,-13.7171],[-57.1186,-13.6866],[-57.0978,-13.6347],[-57.0516,-13.6603],[-57.0578,-13.6901],[-57.043,-13.691],[-57.0332,-13.6696],[-56.9979,-13.6589],[-56.9861,-13.6167],[-56.9578,-13.6396],[-56.9631,-13.6707],[-56.9293,-13.6481],[-56.9256,-13.6758],[-56.8888,-13.6711],[-56.863,-13.6869],[-56.8647,-13.7189],[-56.821,-13.71],[-56.8254,-13.741],[-56.8778,-13.7565],[-56.8992,-13.7849],[-56.9724,-13.7836],[-56.9822,-13.8107],[-56.9522,-13.7996],[-56.9423,-13.823],[-56.9968,-13.8807],[-56.9362,-13.8845],[-56.934,-13.8607],[-56.887,-13.8459],[-56.8636,-13.8594],[-56.8673,-13.8874],[-56.8431,-13.876],[-56.8411,-13.9068],[-56.8076,-13.9074],[-56.8102,-13.9444],[-56.8361,-13.9284],[-56.8473,-13.9562],[-56.8647,-13.9594],[-56.9155,-13.9315],[-56.9772,-13.9296],[-57.0084,-13.941],[-57.0214,-13.9662],[-56.9769,-13.9425],[-56.9126,-13.9496],[-56.828,-14.0273],[-56.7641,-14.0169],[-56.7559,-14.0729],[-56.7192,-14.0777],[-56.6406,-14.0205],[-56.6399,-14.0027],[-56.7069,-13.949],[-56.6425,-13.9354],[-56.6282,-13.9527],[-56.6227,-13.9331],[-56.5782,-13.919],[-56.5764,-13.8812],[-56.6024,-13.8535],[-56.6256,-13.8687],[-56.6778,-13.8657],[-56.6886,-13.8823],[-56.7085,-13.8557],[-56.6931,-13.8469],[-56.6903,-13.8143],[-56.6649,-13.8179],[-56.6474,-13.8025],[-56.6345,-13.7363],[-56.5902,-13.715],[-56.6189,-13.7062],[-56.6394,-13.6667],[-56.571,-13.6384],[-56.5455,-13.5887],[-56.4916,-13.6006],[-56.4919,-13.6351],[-56.4761,-13.6385],[-56.4838,-13.6766],[-56.4574,-13.6784],[-56.4608,-13.7382],[-56.4298,-13.7714],[-56.4197,-13.829],[-56.3804,-13.855],[-56.3372,-13.8595],[-56.2803,-13.8227],[-56.2401,-13.823],[-56.2645,-13.7751],[-56.2125,-13.7384],[-56.2271,-13.6851],[-56.2113,-13.6648],[-56.154,-13.726],[-56.1716,-13.7652],[-56.1166,-13.7742],[-56.1104,-13.8145],[-56.0839,-13.8154],[-56.0523,-13.7647],[-56.0012,-13.7968],[-55.9879,-13.7699],[-55.9965,-13.7512],[-55.9727,-13.7377],[-56.0205,-13.7245],[-56.0286,-13.7038],[-56.0519,-13.7458],[-56.0708,-13.7022],[-56.0476,-13.6995],[-56.0481,-13.6762],[-56.092,-13.6935],[-56.1034,-13.661],[-56.0925,-13.6448],[-56.1132,-13.6312],[-56.1136,-13.6051],[-56.0861,-13.5961],[-56.056,-13.6413],[-56.0332,-13.6141],[-56.0681,-13.6122],[-56.0595,-13.582],[-56.0986,-13.5536],[-56.1491,-13.5619],[-56.1069,-13.5226],[-56.1133,-13.5115],[-56.1806,-13.4887],[-56.1849,-13.5116],[-56.2549,-13.5032],[-56.2858,-13.5194],[-56.3292,-13.4848],[-56.3155,-13.4491],[-56.3267,-13.4437],[-56.3653,-13.4707],[-56.344,-13.5173],[-56.3465,-13.5393],[-56.3616,-13.5438],[-56.4083,-13.4456],[-56.4504,-13.4241],[-56.4482,-13.3962],[-56.4904,-13.3667],[-56.4736,-13.3501],[-56.4838,-13.3209],[-56.4098,-13.2746],[-56.4213,-13.2383],[-56.3796,-13.2142],[-56.3722,-13.1901],[-56.3468,-13.1988],[-56.363,-13.2291],[-56.3318,-13.2246],[-56.2982,-13.2609],[-56.287,-13.2236],[-56.2346,-13.1763],[-56.2245,-13.1171],[-56.1969,-13.1086],[-56.2178,-13.0957],[-56.1941,-13.0541],[-56.2217,-13.0232],[-56.257,-13.0305],[-56.3256,-12.9911],[-56.3689,-12.9118],[-56.3963,-12.9192],[-56.4303,-12.905],[-56.4645,-12.9275],[-56.45,-12.8746],[-56.4805,-12.8647],[-56.4641,-12.8163],[-56.4492,-12.8349],[-56.4337,-12.8177],[-56.4443,-12.7926],[-56.4002,-12.7701],[-56.4106,-12.7148],[-56.3775,-12.6822],[-56.3686,-12.6244],[-56.2775,-12.5757],[-56.2765,-12.5346],[-56.2428,-12.4927],[-56.2642,-12.4695],[-56.2496,-12.4284],[-56.281,-12.3978],[-56.2624,-12.3869],[-56.2682,-12.362],[-56.2412,-12.3257],[-56.254,-12.2948],[-56.2225,-12.2296],[-56.1683,-12.2468],[-56.1928,-12.1969],[-56.1294,-12.1148],[-56.1085,-12.1076],[-56.0779,-12.1413],[-56.0029,-12.1177],[-55.9983,-12.1447],[-56.0304,-12.1687],[-56.0984,-12.1759],[-56.0923,-12.2124],[-56.1113,-12.2141],[-56.1059,-12.236],[-56.1379,-12.2511],[-56.1337,-12.2757],[-56.1803,-12.3451],[-56.2122,-12.3591],[-56.1827,-12.3985],[-56.146,-12.4059],[-56.2043,-12.4768],[-56.1807,-12.5247],[-56.1435,-12.537],[-56.1514,-12.6077],[-56.1263,-12.6086],[-56.0904,-12.6838],[-55.9836,-12.6731],[-55.9325,-12.6925],[-55.9214,-12.6565],[-55.9656,-12.6173],[-56.0231,-12.5959],[-56.0131,-12.5597],[-56.077,-12.5572],[-56.0904,-12.5045],[-55.9254,-12.5392],[-55.8618,-12.4959],[-55.794,-12.4845],[-55.7651,-12.458],[-55.7654,-12.4083],[-55.7207,-12.4153],[-55.6522,-12.3375],[-55.6005,-12.3305],[-55.5986,-12.4193],[-55.5316,-12.472],[-55.5698,-12.5313],[-55.5842,-12.6034],[-55.5667,-12.6451],[-55.487,-12.7145],[-55.4827,-12.7709],[-55.5067,-12.8508],[-55.4979,-12.8779],[-55.4813,-12.8999],[-55.4465,-12.9091],[-55.428,-12.9449],[-55.3926,-12.9519],[-55.3613,-13.0152],[-55.3384,-12.975],[-55.2745,-12.9693],[-55.2856,-13.0257],[-55.2522,-13.0479],[-55.2325,-13.0981],[-55.1837,-13.1188],[-55.1656,-13.0938],[-55.1499,-13.1286],[-55.1822,-13.2196],[-55.1545,-13.2485],[-55.1933,-13.2944],[-55.1744,-13.3401],[-55.1536,-13.3456],[-55.1281,-13.2941],[-55.1046,-13.2872],[-55.0425,-13.3071],[-54.9747,-13.291],[-54.9827,-13.3321],[-54.9546,-13.329],[-54.9386,-13.3475],[-54.8942,-13.2927],[-54.8928,-13.3467],[-54.8768,-13.3343],[-54.846,-13.3602],[-54.8098,-13.3656],[-54.727,-13.3111],[-54.6737,-13.3581],[-54.6315,-13.3589],[-54.6037,-13.393],[-54.5566,-13.3454],[-54.566,-13.3976],[-54.5329,-13.3972],[-54.5342,-13.4346],[-54.5073,-13.4461],[-54.5116,-13.4821],[-54.4818,-13.5066],[-54.4747,-13.5595],[-54.456,-13.5734],[-54.4161,-13.5529],[-54.3971,-13.5743],[-54.3792,-13.5665],[-54.3796,-13.5998],[-54.3343,-13.6447],[-54.3262,-13.7096],[-54.2916,-13.7064],[-54.2729,-13.6866],[-54.2496,-13.6966],[-54.2503,-13.6483],[-54.2033,-13.5816],[-54.1797,-13.5725],[-54.1256,-13.5925],[-54.101,-13.566],[-54.0829,-13.5772],[-54.0514,-13.5668],[-54.0289,-13.5799],[-54.0081,-13.6248],[-54.0068,-13.7186],[-53.9914,-13.7303],[-53.9657,-13.6178],[-53.9488,-13.627],[-53.9366,-13.6713],[-53.9241,-13.6518],[-53.9381,-13.6304],[-53.9136,-13.6312],[-53.9122,-13.6145],[-53.8815,-13.6067],[-53.8729,-13.5741],[-53.8411,-13.555],[-53.7914,-13.5357],[-53.7803,-13.5909],[-53.7545,-13.5892],[-53.7055,-13.5659],[-53.6761,-13.5195],[-53.624,-13.5681],[-53.5853,-13.5629],[-53.6165,-13.6068],[-53.602,-13.6638],[-53.537,-13.6727],[-53.5351,-13.6569],[-53.4962,-13.6457],[-53.4463,-13.5956],[-53.4708,-13.5918],[-53.4762,-13.5757],[-53.4167,-13.5138],[-53.4344,-13.4858],[-53.4058,-13.4609],[-53.3991,-13.4104],[-53.3874,-13.4234],[-53.3361,-13.4205],[-53.288,-13.4861],[-53.2654,-13.482],[-53.2362,-13.5024],[-53.2383,-13.5311],[-53.1951,-13.5588],[-53.2285,-13.5677],[-53.2296,-13.6053],[-53.1565,-13.5874],[-53.145,-13.6037],[-53.1837,-13.6192],[-53.1646,-13.6501],[-53.1338,-13.6657],[-53.1072,-13.6478],[-53.0967,-13.6648],[-53.0769,-13.6221],[-53.0689,-13.4879],[-53.0461,-13.4512],[-53.0341,-13.4509],[-53.0279,-13.478],[-52.96,-13.4678],[-52.9404,-13.4864],[-52.9303,-13.4783],[-52.949,-13.4187],[-52.9075,-13.4353],[-52.9471,-13.3903],[-52.9387,-13.336],[-52.891,-13.372],[-52.9034,-13.3972],[-52.8697,-13.4057],[-52.8495,-13.466],[-52.7405,-13.4312],[-52.7186,-13.4053],[-52.6326,-13.393],[-52.607,-13.3703],[-52.6116,-13.346],[-52.5834,-13.3261],[-52.5601,-13.3482],[-52.5017,-13.3242],[-52.4853,-13.3391],[-52.4004,-13.283],[-52.406,-13.2366],[-52.3928,-13.2265],[-52.3316,-13.2501],[-52.3149,-13.2922],[-52.3352,-13.3161],[-52.2505,-13.4131],[-52.2704,-13.2711],[-52.2191,-13.1767],[-52.2219,-13.1146],[-52.1932,-13.1027],[-52.211,-13.0765],[-52.1863,-12.9987],[-52.1462,-12.9877],[-52.1347,-13.0013],[-52.0468,-13.0011],[-52.0336,-12.9612],[-51.9948,-13.0152],[-52.0101,-13.0637],[-51.9882,-13.0737],[-51.9731,-13.0517],[-51.9316,-13.0537],[-51.9178,-13.0231],[-51.9375,-13.0049],[-51.9136,-12.9946],[-51.8788,-12.8648],[-51.7859,-12.8552],[-51.796,-12.8183],[-51.7449,-12.8138],[-51.7348,-12.7986],[-51.7494,-12.7261],[-51.5838,-12.7098],[-51.5663,-12.6771],[-51.5161,-12.6489],[-51.5528,-12.6371],[-51.5655,-12.6128],[-51.5473,-12.5801],[-51.5199,-12.5698],[-51.4609,-12.4486],[-51.4281,-12.4273],[-51.3754,-12.4252],[-51.3616,-12.399],[-51.3014,-12.3816],[-51.2725,-12.4089],[-51.1668,-12.449],[-51.1552,-12.4342],[-51.1832,-12.3905],[-51.0888,-12.4315],[-51.0432,-12.3902],[-51.0346,-12.337],[-51.088,-12.3486],[-51.1051,-12.3307],[-51.1535,-12.3348],[-51.1307,-12.3135],[-51.0581,-12.317],[-51.0601,-12.2976],[-51.0361,-12.2859],[-51.0455,-12.2661],[-51.0282,-12.2567],[-51.0444,-12.245],[-51.1718,-12.2746],[-51.1749,-12.2991],[-51.2293,-12.3235],[-51.2298,-12.2914],[-51.201,-12.2766],[-51.2271,-12.2507],[-51.3015,-12.3012],[-51.3352,-12.2787],[-51.3277,-12.2645],[-51.3787,-12.2136],[-51.401,-12.1677],[-51.3944,-12.1524],[-51.422,-12.1442],[-51.416,-12.1202],[-51.3797,-12.1055],[-51.3873,-12.0903],[-51.3715,-12.0765],[-51.3793,-11.9938],[-51.4017,-11.9519],[-51.3889,-11.8765],[-51.416,-11.8599],[-51.4821,-11.8751],[-51.5502,-11.8158],[-51.5392,-11.7263],[-51.4547,-11.6771],[-51.3855,-11.6724],[-51.3618,-11.6503],[-51.3657,-11.5975],[-51.3178,-11.5999],[-51.3027,-11.5848],[-51.2846,-11.559],[-51.2827,-11.5087],[-51.3012,-11.5062],[-51.2828,-11.4703],[-51.305,-11.4649],[-51.3097,-11.4891],[-51.3336,-11.4648],[-51.3539,-11.485],[-51.4374,-11.5026],[-51.4502,-11.4848],[-51.422,-11.4575],[-51.3993,-11.3932],[-51.4364,-11.4217],[-51.4601,-11.3972],[-51.4771,-11.4143],[-51.4777,-11.3924],[-51.4518,-11.3847],[-51.4518,-11.3678],[-51.4826,-11.3727],[-51.491,-11.3402],[-51.5186,-11.3675],[-51.5236,-11.3172],[-51.562,-11.3383],[-51.524,-11.2758],[-51.5433,-11.2556],[-51.608,-11.2658],[-51.5702,-11.2458],[-51.5635,-11.207],[-51.6182,-11.201],[-51.682,-11.2215],[-51.6865,-11.25],[-51.7094,-11.2416],[-51.7201,-11.2223],[-51.711,-11.1725],[-51.7227,-11.1438],[-51.7559,-11.1332],[-51.7875,-11.0389],[-51.8526,-11.04],[-51.8514,-11.0082],[-51.8969,-10.9474],[-51.8654,-10.9096],[-51.8537,-10.8525],[-51.9052,-10.7755],[-51.8965,-10.7577],[-51.8199,-10.7258],[-51.7048,-10.7412],[-51.6496,-10.8504],[-51.636,-10.7565],[-51.6191,-10.8061],[-51.5921,-10.7957],[-51.5749,-10.8205],[-51.5511,-10.7249],[-51.5193,-10.7246],[-51.4935,-10.782],[-51.4728,-10.7633],[-51.4425,-10.7813],[-51.406,-10.7398],[-51.3486,-10.7535],[-51.3689,-10.7918],[-51.361,-10.805],[-51.3389,-10.7989],[-51.3509,-10.8453],[-51.3197,-10.8844],[-51.2671,-10.9068],[-51.1946,-10.8792],[-51.1649,-10.8355],[-51.1249,-10.8297],[-51.1617,-10.7508],[-51.1873,-10.7415],[-51.2206,-10.6825],[-51.1659,-10.7198],[-51.1622,-10.7],[-51.1864,-10.6669],[-51.1566,-10.6665],[-51.126,-10.7365],[-51.0785,-10.6879],[-51.0445,-10.685],[-51.0063,-10.7628],[-51.023,-10.6628],[-50.9873,-10.6914],[-50.9622,-10.6815],[-50.9402,-10.7128],[-50.9469,-10.727],[-50.9168,-10.7092],[-50.9309,-10.6944],[-50.906,-10.6668],[-50.9233,-10.6546],[-50.914,-10.6438],[-50.8912,-10.6623],[-50.883,-10.7104],[-50.8531,-10.703],[-50.8521,-10.6755],[-50.8137,-10.6509],[-50.7307,-10.6388],[-50.7434,-10.6167],[-50.7229,-10.6035],[-50.7016,-10.6139],[-50.6992,-10.6424],[-50.6695,-10.6525],[-50.6711,-10.6295],[-50.6092,-10.6125],[-50.5464,-10.5279],[-50.541,-10.5033],[-50.6076,-10.4891],[-50.6292,-10.4402],[-50.6514,-10.4519],[-50.663,-10.431],[-50.6941,-10.4302],[-50.6946,-10.3966],[-50.664,-10.3963],[-50.6869,-10.3767],[-50.5697,-10.3827],[-50.5537,-10.3722],[-50.5655,-10.3554],[-50.554,-10.3477],[-50.5806,-10.3002],[-50.5748,-10.2566],[-50.5183,-10.2195],[-50.4978,-10.2524],[-50.4751,-10.2221],[-50.4548,-10.2484],[-50.4319,-10.2356],[-50.4258,-10.2066],[-50.4743,-10.1865],[-50.4712,-10.163],[-50.4965,-10.1441],[-50.4949,-10.1093],[-50.5576,-10.1035],[-50.4486,-10.044],[-50.3997,-10.0484],[-50.3993,-10.012],[-50.4405,-9.9774],[-50.4355,-9.9652],[-50.3946,-9.9859],[-50.3904,-9.9407],[-50.3731,-9.9495],[-50.3566,-9.9253],[-50.3484,-9.8878],[-50.3917,-9.8713],[-50.3892,-9.8488],[-50.3445,-9.8472],[-50.344,-9.8338],[-50.2248,-9.8412],[-50.2655,-9.9127],[-50.2779,-9.9708],[-50.3026,-10.0354],[-50.3398,-10.0609],[-50.3778,-10.1107],[-50.3983,-10.1555],[-50.382,-10.2121],[-50.4231,-10.3274],[-50.4181,-10.3546],[-50.4483,-10.3916],[-50.4737,-10.4049],[-50.4868,-10.462],[-50.4826,-10.49],[-50.5168,-10.5055],[-50.5197,-10.5625],[-50.5414,-10.6093],[-50.5632,-10.6113],[-50.6033,-10.6598],[-50.6035,-10.6609],[-50.5706,-10.7525],[-50.5969,-10.8047],[-50.6122,-10.8103],[-50.619,-10.8641],[-50.6008,-10.9007],[-50.6326,-10.9319],[-50.6095,-11.0674],[-50.6645,-11.1516],[-50.6547,-11.215],[-50.6713,-11.2867],[-50.6999,-11.3131],[-50.7285,-11.3826],[-50.7421,-11.4603],[-50.7389,-11.5445],[-50.716,-11.579],[-50.6701,-11.5816],[-50.6575,-11.5928],[-50.6637,-11.6775],[-50.7173,-11.7274],[-50.722,-11.7397],[-50.691,-11.8172],[-50.6863,-11.859],[-50.6393,-11.8846],[-50.668,-11.9301],[-50.6568,-11.9668],[-50.6822,-11.9909],[-50.6871,-12.0356],[-50.6676,-12.0646],[-50.6814,-12.2169],[-50.6323,-12.2686],[-50.6489,-12.2991],[-50.6446,-12.3459],[-50.6269,-12.384],[-50.6337,-12.4139],[-50.6236,-12.4553],[-50.6471,-12.4855],[-50.6623,-12.5323],[-50.7001,-12.5951],[-50.7013,-12.6435],[-50.6839,-12.6481],[-50.6562,-12.646],[-50.6548,-12.6792],[-50.623,-12.7346],[-50.6254,-12.8],[-50.567,-12.8434],[-50.5131,-12.8446],[-50.511,-12.8609],[-50.5237,-12.9712],[-50.5488,-12.9928],[-50.5873,-12.9985],[-50.5708,-13.0342],[-50.6103,-13.0648],[-50.5946,-13.0967],[-50.6047,-13.1915],[-50.585,-13.2153],[-50.6111,-13.3202],[-50.6695,-13.3952],[-50.6639,-13.435],[-50.6835,-13.4452],[-50.7148,-13.4915],[-50.759,-13.5203],[-50.7716,-13.6045],[-50.8088,-13.6974],[-50.8739,-13.7345],[-50.8553,-13.7574],[-50.8591,-13.8287],[-50.8406,-13.8638],[-50.8402,-13.9237],[-50.8658,-13.9598],[-50.8562,-14.0193],[-50.8313,-14.0828],[-50.8415,-14.1043],[-50.8518,-14.1176],[-50.8987,-14.1149],[-50.977,-14.2935],[-50.9693,-14.3358],[-50.9873,-14.3577],[-50.9979,-14.4138],[-50.989,-14.4536],[-50.968,-14.482],[-50.9642,-14.5283],[-50.9937,-14.5701],[-50.9928,-14.6125],[-51.0267,-14.6594],[-51.0301,-14.7097],[-51.0532,-14.7389],[-51.0448,-14.7928],[-51.0896,-14.8402],[-51.093,-14.8879],[-51.0924,-14.8945],[-51.0871,-14.9213],[-51.099,-14.9253],[-51.1028,-14.9265],[-51.1449,-14.9434],[-51.157,-14.9856],[-51.216,-15.022],[-51.2759,-15.0438],[-51.295,-15.0302],[-51.3071,-14.981],[-51.3331,-14.9701],[-51.3387,-14.9751],[-51.3413,-14.9805],[-51.3499,-14.9903],[-51.4195,-14.9904],[-51.3531,-14.9939],[-51.3682,-15.0096],[-51.4305,-15.0098],[-51.462,-15.048],[-51.5341,-15.0652],[-51.6061,-15.1623],[-51.6474,-15.1735],[-51.6682,-15.2322],[-51.6507,-15.2731],[-51.6772,-15.2876],[-51.6915,-15.3249],[-51.6695,-15.3744],[-51.696,-15.4059],[-51.7093,-15.4616],[-51.699,-15.4849],[-51.7319,-15.504],[-51.7256,-15.5441],[-51.7556,-15.5574],[-51.754,-15.615],[-51.7679,-15.6536],[-51.8233,-15.7314],[-51.8803,-15.8243],[-51.9485,-15.8101],[-51.9721,-15.8381],[-52.0095,-15.8858],[-52.1112,-15.8829],[-52.1276,-15.895],[-52.1949,-15.8809],[-52.2543,-15.8937],[-52.2569,-15.9309],[-52.2898,-15.9646],[-52.3108,-16.007],[-52.3285,-16.0704],[-52.361,-16.0816],[-52.4717,-16.1267],[-52.5492,-16.165],[-52.546,-16.2597],[-52.6592,-16.2807],[-52.6812,-16.3017],[-52.6927,-16.3664],[-52.6745,-16.4124],[-52.641,-16.4157],[-52.6061,-16.486],[-52.6294,-16.5178],[-52.6257,-16.5322],[-52.6756,-16.5855],[-52.7032,-16.5963],[-52.7328,-16.5859],[-52.726,-16.6145],[-52.759,-16.6711],[-52.7616,-16.7068],[-52.7857,-16.7144],[-52.8324,-16.7722],[-52.8851,-16.777],[-52.914,-16.8127],[-52.9291,-16.8376],[-52.9717,-16.8697],[-53.0141,-16.8643],[-53.035,-16.9425],[-53.0545,-16.9684],[-53.0638,-17.0165],[-53.055,-17.0644],[-53.1107,-17.1081],[-53.1282,-17.1549],[-53.1551,-17.1866],[-53.2092,-17.316],[-53.1972,-17.3783],[-53.2314,-17.4404],[-53.2236,-17.4583],[-53.242,-17.5042],[-53.2404,-17.6],[-53.2485,-17.6273],[-53.2338,-17.713],[-53.2019,-17.7261],[-53.16,-17.7749],[-53.1317,-17.8423],[-53.1251,-17.9175],[-53.0713,-17.9659],[-53.0723,-18.034],[-53.1743,-18.0416],[-53.2378,-18.0074],[-53.2919,-17.9959],[-53.3808,-18.0088],[-53.4039,-17.9926],[-53.435,-17.9846],[-53.4679,-18.0349],[-53.5901,-18.0097],[-53.6162,-17.9787],[-53.652,-17.9763],[-53.6927,-18.0069],[-53.7367,-17.9949],[-53.7742,-18.0008],[-53.8542,-17.9258],[-53.8986,-17.9088],[-53.9517,-17.9158],[-53.9557,-17.883],[-53.9412,-17.8402],[-53.9132,-17.808],[-53.8884,-17.749],[-53.8559,-17.7027],[-53.7988,-17.6705],[-53.7572,-17.6728],[-53.7039,-17.6613],[-53.6801,-17.2541],[-53.7051,-17.2282],[-53.7628,-17.2466],[-53.7857,-17.2875],[-53.8201,-17.2946],[-53.8313,-17.355],[-53.8694,-17.3692],[-53.9311,-17.4395],[-53.9731,-17.4722],[-54.0233,-17.4771],[-54.0581,-17.5131],[-54.0516,-17.5628],[-54.0847,-17.619],[-54.1342,-17.6187],[-54.1916,-17.6056],[-54.3024,-17.6617],[-54.3434,-17.6556],[-54.3878,-17.6319],[-54.3771,-17.6074],[-54.392,-17.5706],[-54.4263,-17.537],[-54.4687,-17.5272],[-54.4742,-17.498],[-54.5023,-17.4807],[-54.5703,-17.4734],[-54.6361,-17.4957],[-54.7469,-17.5199],[-54.7588,-17.5657],[-54.8008,-17.5826],[-54.825,-17.6097],[-54.8609,-17.6239],[-54.9434,-17.609],[-54.9637,-17.6151],[-54.9791,-17.5619],[-54.9708,-17.544],[-55.0247,-17.5192],[-55.05,-17.5483],[-55.0787,-17.5504],[-55.0997,-17.5873],[-55.1781,-17.6234],[-55.2522,-17.5652],[-55.2302,-17.503],[-55.2318,-17.4412],[-55.2451,-17.4043],[-55.2702,-17.3951],[-55.2516,-17.3858],[-55.2319,-17.3198],[-55.2061,-17.3082],[-55.1823,-17.3778],[-55.1401,-17.3954],[-55.1535,-17.4497],[-55.0784,-17.4545],[-55.0214,-17.4893],[-55.0019,-17.4736],[-54.9972,-17.4431],[-54.9651,-17.4304],[-54.9827,-17.3888],[-54.9401,-17.3604],[-54.9405,-17.2893],[-54.9775,-17.2848],[-54.9953,-17.2568],[-54.9565,-17.2146],[-54.9795,-17.2157],[-54.984,-17.1989],[-54.9149,-17.1361],[-54.9157,-17.1115],[-54.94,-17.0963],[-54.9246,-17.0675],[-54.9464,-17.0533],[-54.9193,-17.0259],[-54.9408,-17.0189],[-54.9374,-16.9833],[-54.9597,-16.9518],[-54.9426,-16.9338],[-54.9476,-16.8821],[-54.9265,-16.8712],[-54.92,-16.8358],[-54.9365,-16.8276],[-54.9282,-16.7867],[-54.954,-16.7896],[-54.9763,-16.7564],[-54.9701,-16.7176],[-55.0226,-16.6847],[-55.0087,-16.6388],[-54.9831,-16.6322],[-55.0006,-16.6041],[-54.9796,-16.5422],[-54.9393,-16.498],[-54.9405,-16.4673],[-54.9586,-16.4615],[-55.0054,-16.4843],[-55.0366,-16.5373],[-55.1698,-16.5791],[-55.2409,-16.622],[-55.2593,-16.6124],[-55.3013,-16.6381],[-55.3496,-16.6368],[-55.3729,-16.6609],[-55.3875,-16.6388],[-55.4228,-16.6528],[-55.4325,-16.631],[-55.3356,-16.5733],[-55.3596,-16.554],[-55.3117,-16.505],[-55.3233,-16.4814],[-55.3516,-16.47],[-55.3467,-16.4397],[-55.3987,-16.4053],[-55.405,-16.3798],[-55.3778,-16.3662],[-55.3978,-16.327],[-55.434,-16.3284],[-55.4355,-16.3128],[-55.4804,-16.3184],[-55.4874,-16.3029],[-55.5226,-16.319],[-55.5549,-16.291],[-55.5346,-16.253],[-55.5545,-16.237],[-55.5197,-16.2212],[-55.485,-16.1773],[-55.5067,-16.1189],[-55.5492,-16.1412],[-55.5678,-16.1137],[-55.5931,-16.1079],[-55.6004,-16.1271],[-55.6198,-16.1183],[-55.6571,-16.1375],[-55.6789,-16.1718],[-55.6669,-16.2808],[-55.7135,-16.2989],[-55.7319,-16.2679],[-55.7585,-16.2666],[-55.8105,-16.2963],[-55.7419,-16.1612],[-55.7013,-16.1448],[-55.6974,-16.1272],[-55.7287,-16.1214],[-55.6479,-16.0138],[-55.6384,-15.9794],[-55.6604,-15.9725],[-55.6835,-16.0116],[-55.6839,-15.9853],[-55.7067,-15.9847],[-55.798,-16.0942],[-55.8231,-16.0919],[-55.7743,-16.0215],[-55.7658,-15.9573],[-55.7828,-15.9394],[-55.8379,-15.9653],[-55.8578,-15.9572],[-55.8249,-15.8977],[-55.8474,-15.8735],[-55.8695,-15.8799],[-55.8534,-15.847],[-55.874,-15.8363],[-55.8647,-15.8068],[-55.9146,-15.8279],[-55.9119,-15.7906],[-55.8668,-15.7721],[-55.891,-15.7585],[-55.9806,-15.781],[-55.9911,-15.8109],[-56.0259,-15.8308],[-56.0267,-15.8554],[-56.0698,-15.8699],[-56.1288,-15.8236],[-56.1487,-15.8595],[-56.1327,-15.8979],[-56.1633,-15.9243],[-56.158,-15.9622],[-56.1756,-15.9809],[-56.169,-16.0311],[-56.189,-16.0394],[-56.2281,-16.0257],[-56.2182,-16.0565],[-56.2559,-16.0598],[-56.2672,-16.0847],[-56.2846,-16.0543],[-56.3284,-16.0632],[-56.3349,-16.045],[-56.3544,-16.0557],[-56.3506,-16.0215],[-56.379,-16.0076],[-56.3913,-16.0376],[-56.4669,-16.0033],[-56.4498,-16.0419],[-56.418,-16.0479],[-56.4289,-16.0808],[-56.4522,-16.0838],[-56.4399,-16.1221],[-56.4576,-16.121],[-56.4649,-16.1436],[-56.4344,-16.1686],[-56.3923,-16.1297],[-56.3571,-16.1532],[-56.3334,-16.24],[-56.3864,-16.2336],[-56.4068,-16.2477],[-56.4007,-16.214],[-56.4257,-16.22],[-56.4421,-16.193],[-56.4677,-16.1982],[-56.5205,-16.1275],[-56.5538,-16.168],[-56.5993,-16.1278],[-56.5957,-16.1466],[-56.6109,-16.1567],[-56.563,-16.1985],[-56.5858,-16.2116],[-56.5752,-16.2281],[-56.5906,-16.2382],[-56.5847,-16.2643],[-56.5424,-16.3047],[-56.5436,-16.3247],[-56.5977,-16.3141],[-56.6155,-16.3204],[-56.6171,-16.3453],[-56.6713,-16.3206],[-56.6458,-16.3593],[-56.6906,-16.3857],[-56.7321,-16.3702],[-56.7194,-16.3204],[-56.7677,-16.3434],[-56.8116,-16.3366],[-56.8026,-16.3792],[-56.8179,-16.4031],[-56.8254,-16.3651],[-56.8393,-16.3619],[-56.8313,-16.3219],[-56.8487,-16.2868],[-56.8649,-16.2864],[-56.884,-16.3181],[-56.8999,-16.2918],[-56.8977,-16.243],[-56.9399,-16.2302],[-56.93,-16.2155],[-56.9047,-16.2207],[-56.9087,-16.1999],[-56.8786,-16.1951],[-56.8881,-16.179],[-56.8759,-16.1623],[-56.9218,-16.144],[-56.945,-16.1502],[-56.9764,-16.1896],[-56.9874,-16.1774],[-57.0144,-16.1874],[-57.0208,-16.2242],[-57.0401,-16.2133],[-57.0566,-16.2256],[-57.0647,-16.183],[-57.053,-16.1669],[-57.0714,-16.169],[-57.0881,-16.1426],[-57.0537,-16.126],[-57.0665,-16.0971],[-57.0305,-16.0879],[-57.0408,-16.0752],[-57.0245,-16.0432],[-57.0679,-16.0726],[-57.0702,-16.0175],[-57.1219,-15.9952],[-57.0959,-15.9601],[-57.1057,-15.9439],[-57.145,-15.9437],[-57.1619,-15.922],[-57.1818,-15.9233],[-57.2867,-16.0496],[-57.3058,-16.1321],[-57.3456,-16.1885],[-57.4028,-16.2076],[-57.4213,-16.3518],[-57.4524,-16.382],[-57.4412,-16.4295],[-57.4768,-16.5281],[-57.537,-16.56],[-57.5809,-16.6111],[-57.6008,-16.6147],[-57.6156,-16.5901],[-57.6297,-16.669],[-57.6577,-16.6963],[-57.6714,-16.6929],[-57.6796,-16.6281],[-57.7201,-16.6467],[-57.7328,-16.6255],[-57.773,-16.6132],[-57.8404,-16.7021],[-57.8527,-16.6734],[-57.8403,-16.5777],[-57.7918,-16.4887],[-57.7565,-16.3423],[-57.7267,-16.2912],[-57.6883,-16.2676],[-57.6552,-16.1562],[-57.5991,-16.0661],[-57.6055,-16.0367],[-57.5738,-15.9527],[-57.5048,-15.8042],[-57.4802,-15.7832],[-57.5122,-15.7568],[-57.4825,-15.7068],[-57.4827,-15.6505],[-57.4055,-15.5653],[-57.3701,-15.5655],[-57.3469,-15.4847],[-57.3014,-15.4462],[-57.2728,-15.354],[-57.2538,-15.36],[-57.2247,-15.3035],[-57.1088,-15.3226],[-57.0363,-15.2334],[-57.0643,-15.1923],[-57.0851,-15.2067],[-57.12,-15.1446],[-57.147,-15.1602],[-57.1685,-15.1456],[-57.1902,-15.1715],[-57.1942,-15.1544],[-57.2121,-15.1553],[-57.2284,-15.1035],[-57.173,-15.0973],[-57.0923,-15.1162],[-57.0549,-15.0876],[-57.0358,-15.1023],[-57.0089,-15.0449],[-56.9416,-15.0486],[-56.9256,-15.0209],[-56.8857,-15.0121],[-56.8325,-14.9364],[-56.7842,-14.8094],[-56.7923,-14.7725],[-56.7835,-14.7591],[-56.7611,-14.7687],[-56.7483,-14.7497],[-56.7587,-14.6993],[-56.725,-14.6834],[-56.7302,-14.6697],[-56.7104,-14.6693],[-56.7141,-14.6174],[-56.6674,-14.5646],[-56.6733,-14.5072],[-56.767,-14.4608],[-56.7061,-14.478],[-56.6638,-14.4292],[-56.5702,-14.4187],[-56.5043,-14.3868],[-56.502,-14.3325],[-56.5403,-14.3347],[-56.52,-14.3007],[-56.5507,-14.3014],[-56.5115,-14.2739],[-56.5347,-14.2765],[-56.5306,-14.2578],[-56.5685,-14.2475],[-56.5911,-14.2219],[-56.6324,-14.2201],[-56.6291,-14.205],[-56.6533,-14.2144],[-56.7316,-14.1777],[-56.7508,-14.1905],[-56.7692,-14.2625],[-56.7866,-14.277],[-56.7894,-14.1879],[-56.8249,-14.1516],[-56.8539,-14.1931],[-56.872,-14.1751],[-56.8996,-14.1971],[-56.9109,-14.1614],[-56.9464,-14.1644],[-56.9979,-14.2102],[-57.0586,-14.2086],[-57.0953,-14.1754],[-57.135,-14.1668],[-57.2164,-14.2263],[-57.215,-14.2008],[-57.2781,-14.2125],[-57.2829,-14.2002],[-57.368,-14.2468],[-57.3841,-14.2456],[-57.3897,-14.2252],[-57.409,-14.2283],[-57.4536,-14.2988],[-57.542,-14.3256],[-57.5705,-14.3141],[-57.6064,-14.351],[-57.6709,-14.3613],[-57.6968,-14.4025],[-57.7138,-14.3957],[-57.7613,-14.4158],[-57.7699,-14.3995],[-57.7855,-14.4036],[-57.861,-14.4593],[-57.8808,-14.511],[-57.899,-14.5012],[-57.9152,-14.5192],[-57.9685,-14.5208],[-57.9805,-14.555],[-58.0443,-14.5635],[-58.1038,-14.6362],[-58.063,-14.6562],[-58.0492,-14.6955],[-58.058,-14.704],[-58.0674,-14.6849],[-58.079,-14.7088],[-58.108,-14.7085],[-58.1047,-14.7326],[-58.1264,-14.7276],[-58.1211,-14.7569],[-58.1451,-14.7743],[-58.1408,-14.8007],[-58.1646,-14.8125],[-58.1531,-14.8509],[-58.1712,-14.874],[-58.1575,-14.8825],[-58.1469,-14.8623],[-58.1401,-14.8773],[-58.0884,-14.8852],[-58.098,-14.9167],[-58.1887,-14.9447],[-58.2025,-14.9685],[-58.2652,-14.9708],[-58.3061,-15.0032],[-58.2841,-15.0475],[-58.2022,-15.1047],[-58.2051,-15.1801],[-58.2368,-15.1568],[-58.2536,-15.084],[-58.2983,-15.0642],[-58.3144,-15.0863],[-58.2877,-15.1369],[-58.3167,-15.1238],[-58.349,-15.0699],[-58.361,-15.0994],[-58.3792,-15.1012],[-58.3825,-15.082],[-58.4088,-15.0911],[-58.4044,-15.0682],[-58.4236,-15.087],[-58.463,-15.0575],[-58.468,-15.0847],[-58.4926,-15.0709],[-58.5099,-15.1003],[-58.531,-15.051],[-58.5368,-15.1228],[-58.6259,-15.1331],[-58.6302,-15.177],[-58.6607,-15.2125],[-58.6773,-15.1801],[-58.7057,-15.1674],[-58.7216,-15.0886],[-58.7632,-15.0277],[-58.7732,-15.0357],[-58.7572,-15.097],[-58.8049,-15.0419],[-58.8317,-15.0384],[-58.8512,-15.0622],[-58.8344,-15.0701],[-58.8333,-15.0989],[-58.7985,-15.1184],[-58.822,-15.1117],[-58.8567,-15.1283],[-58.881,-15.1235],[-58.8759,-15.1025],[-58.9045,-15.0457],[-58.9401,-15.0683],[-58.9573,-15.0086],[-58.9746,-14.9972],[-58.9851,-15.0077],[-58.9713,-15.0379],[-58.994,-15.0321],[-59.0242,-15.0581],[-59.0631,-14.9707],[-59.0911,-14.9495],[-59.1045,-14.959],[-59.1314,-14.9318],[-59.1592,-14.9372],[-59.1724,-14.898],[-59.1908,-14.9063],[-59.2248,-14.8733],[-59.2082,-14.8292],[-59.2306,-14.8072],[-59.2217,-14.7631],[-59.2486,-14.7694],[-59.2662,-14.7361],[-59.3069,-14.7426],[-59.3293,-14.7288],[-59.3199,-14.7007],[-59.2833,-14.6858],[-59.316,-14.6638],[-59.3293,-14.6734],[-59.3335,-14.6376],[-59.3682,-14.6458],[-59.4089,-14.6256],[-59.3952,-14.6031],[-59.4149,-14.568],[-59.4323,-14.5663],[-59.4357,-14.5321],[-59.4576,-14.5321],[-59.4945,-14.4974],[-59.4904,-14.4802],[-59.4627,-14.5008],[-59.4532,-14.4883],[-59.4788,-14.4442],[-59.5106,-14.4297],[-59.5077,-14.3929],[-59.5207,-14.3851],[-59.5465,-14.4007],[-59.5588,-14.3624],[-59.5353,-14.3042],[-59.5712,-14.2826],[-59.5902,-14.2414],[-59.5787,-14.1739],[-59.5485,-14.1661],[-59.5452,-14.0991],[-59.6152,-14.0084],[-59.6358,-14.0107],[-59.6298,-13.9344],[-59.7047,-13.9358],[-59.7192,-13.9593],[-59.732,-13.953],[-59.7378,-13.9042],[-59.7753,-13.906],[-59.7721,-13.8914],[-59.7878,-13.8908],[-59.776,-13.8609],[-59.7982,-13.8321],[-59.7744,-13.8011],[-59.8024,-13.7308],[-59.7427,-13.7384],[-59.7391,-13.7674],[-59.7019,-13.7756],[-59.694,-13.834],[-59.6568,-13.8591],[-59.6488,-13.8342],[-59.668,-13.8171],[-59.6659,-13.7956],[-59.684,-13.7978],[-59.6861,-13.7559],[-59.7227,-13.7503],[-59.7347,-13.6942],[-59.7735,-13.6813],[-59.7689,-13.6529],[-59.7982,-13.7052],[-59.8232,-13.6982],[-59.8258,-13.6688],[-59.7987,-13.6501],[-59.8017,-13.6242],[-59.7666,-13.6342],[-59.7689,-13.5878],[-59.8317,-13.552],[-59.8805,-13.4762],[-59.9093,-13.4767],[-59.905,-13.4439],[-59.8827,-13.4483],[-59.8541,-13.4139],[-59.8666,-13.3927],[-59.8926,-13.3933],[-59.8951,-13.3431],[-59.9294,-13.3336],[-59.9305,-13.2789],[-59.9115,-13.2623],[-59.9468,-13.2376],[-59.9367,-13.2136],[-59.9694,-13.2035],[-59.9455,-13.1327],[-59.9206,-13.1951],[-59.8776,-13.1977],[-59.8462,-13.2744],[-59.7978,-13.265],[-59.8004,-13.2386],[-59.8334,-13.2459],[-59.846,-13.2285],[-59.7984,-13.1771],[-59.7633,-13.1914],[-59.7535,-13.217],[-59.7801,-13.2211],[-59.7479,-13.366],[-59.7209,-13.3086],[-59.7233,-13.2506],[-59.6918,-13.1933],[-59.7136,-13.1856],[-59.6871,-13.1676],[-59.7063,-13.1303],[-59.6775,-13.1047],[-59.6875,-13.0708],[-59.649,-13.045],[-59.6824,-13.0281],[-59.6754,-12.9738],[-59.6408,-12.9491],[-59.6181,-12.9588],[-59.61,-12.9223],[-59.6684,-12.8958],[-59.6463,-12.9335],[-59.672,-12.9563],[-59.6991,-12.9395],[-59.7186,-12.9656],[-59.6976,-12.976],[-59.6994,-13.0021],[-59.7295,-13.0063],[-59.7553,-12.9837],[-59.7481,-12.9529],[-59.7709,-12.9482],[-59.7386,-12.9245],[-59.7374,-12.893],[-59.7723,-12.8797],[-59.7871,-12.8948],[-59.8106,-12.863],[-59.8847,-12.8882],[-59.8758,-12.8505],[-59.9113,-12.8337],[-59.9323,-12.8733],[-59.911,-12.9353],[-59.9246,-12.9461],[-59.9234,-12.9819],[-59.9489,-12.9398],[-59.9852,-12.9405],[-59.9919,-12.9279],[-60.0211,-12.9635],[-60.0373,-12.9589],[-60.0098,-12.9081],[-60.0328,-12.8751],[-60.0437,-12.7272],[-60.0057,-12.7446],[-59.9545,-12.702],[-59.998,-12.6422],[-59.9926,-12.632],[-59.9501,-12.6431],[-59.9778,-12.6135],[-59.9644,-12.5958],[-59.9477,-12.5993]]],[[[-60.056,-12.7049],[-60.0567,-12.6979],[-60.0478,-12.7005],[-60.0612,-12.7131],[-60.056,-12.7049]]],[[[-60.0625,-12.7574],[-60.0692,-12.745],[-60.0589,-12.7538],[-60.059,-12.7751],[-60.064,-12.7834],[-60.0625,-12.7574]]],[[[-60.0828,-12.8526],[-60.0801,-12.846],[-60.0739,-12.8611],[-60.0802,-12.8723],[-60.0828,-12.8526]]]]}},{"type":"Feature","properties":{"bioma":"Pantanal"},"geometry":{"type":"Polygon","coordinates":[[[-59.0996,-16.295],[-59.1077,-16.2633],[-59.1408,-16.236],[-59.1183,-16.1937],[-59.088,-16.1817],[-59.0918,-16.1469],[-59.0778,-16.1272],[-59.0078,-16.1462],[-58.917,-16.0988],[-58.8946,-16.1042],[-58.8524,-16.084],[-58.8326,-16.021],[-58.7987,-16.0108],[-58.7982,-15.9834],[-58.7688,-15.9539],[-58.7775,-16.0774],[-58.7462,-16.1002],[-58.7515,-16.1251],[-58.7196,-16.1306],[-58.7407,-16.1841],[-58.7238,-16.2126],[-58.6433,-16.1969],[-58.5556,-16.2408],[-58.516,-16.1965],[-58.4466,-16.2168],[-58.4383,-16.1982],[-58.4529,-16.1696],[-58.4269,-16.133],[-58.4337,-16.0869],[-58.3967,-16.0528],[-58.4086,-16.0284],[-58.4521,-16.0077],[-58.4597,-15.9722],[-58.429,-15.9326],[-58.397,-15.9444],[-58.3435,-15.913],[-58.3097,-15.9199],[-58.2518,-16.0047],[-58.2629,-16.0232],[-58.2954,-16.0201],[-58.3273,-16.0436],[-58.3526,-16.1053],[-58.3248,-16.1285],[-58.3256,-16.1644],[-58.3465,-16.1878],[-58.2838,-16.2298],[-58.2637,-16.3773],[-58.2952,-16.4177],[-58.2393,-16.4534],[-58.1813,-16.59],[-58.2306,-16.5773],[-58.2457,-16.5884],[-58.2617,-16.5602],[-58.2899,-16.5963],[-58.2706,-16.6067],[-58.2758,-16.6458],[-58.2575,-16.6606],[-58.2331,-16.6587],[-58.2417,-16.6364],[-58.2053,-16.6076],[-58.1538,-16.6494],[-58.1285,-16.6122],[-58.15,-16.5608],[-58.122,-16.5137],[-58.1519,-16.4792],[-58.1546,-16.4503],[-58.0788,-16.4051],[-58.0879,-16.3631],[-58.0508,-16.293],[-58.0145,-16.2828],[-57.9944,-16.2125],[-58.0049,-16.1749],[-58.0416,-16.1719],[-58.0352,-16.1228],[-58.1005,-16.0591],[-58.0209,-15.9819],[-58.0425,-15.953],[-58.0316,-15.9244],[-58.0465,-15.8841],[-58.038,-15.8592],[-58.0071,-15.8459],[-58.0212,-15.8154],[-57.9541,-15.7141],[-57.8772,-15.7582],[-57.8494,-15.7077],[-57.8204,-15.7319],[-57.8,-15.648],[-57.7802,-15.6527],[-57.7578,-15.8061],[-57.7384,-15.8675],[-57.6786,-15.9391],[-57.6617,-15.9265],[-57.6577,-15.8901],[-57.718,-15.7348],[-57.6925,-15.6968],[-57.6649,-15.7199],[-57.6151,-15.8578],[-57.528,-15.7987],[-57.5234,-15.7515],[-57.4801,-15.7825],[-57.5048,-15.8042],[-57.5738,-15.9527],[-57.6055,-16.0367],[-57.5991,-16.0661],[-57.6552,-16.1562],[-57.6883,-16.2676],[-57.7267,-16.2912],[-57.7565,-16.3423],[-57.7918,-16.4887],[-57.8403,-16.5777],[-57.8527,-16.6734],[-57.8389,-16.7028],[-57.773,-16.6132],[-57.7328,-16.6255],[-57.7201,-16.6467],[-57.6796,-16.6281],[-57.6714,-16.6929],[-57.6577,-16.6963],[-57.6297,-16.669],[-57.6156,-16.5901],[-57.6008,-16.6147],[-57.5809,-16.6111],[-57.537,-16.56],[-57.4768,-16.5281],[-57.4412,-16.4295],[-57.4524,-16.382],[-57.4213,-16.3518],[-57.4028,-16.2076],[-57.3456,-16.1885],[-57.3058,-16.1321],[-57.2867,-16.0496],[-57.1818,-15.9233],[-57.1619,-15.922],[-57.145,-15.9437],[-57.1057,-15.9439],[-57.0959,-15.9601],[-57.1219,-15.9952],[-57.0702,-16.0175],[-57.0679,-16.0726],[-57.0245,-16.0432],[-57.0408,-16.0752],[-57.0305,-16.0879],[-57.0665,-16.0971],[-57.0537,-16.126],[-57.0881,-16.1426],[-57.0714,-16.169],[-57.053,-16.1669],[-57.0647,-16.183],[-57.0566,-16.2256],[-57.0401,-16.2133],[-57.0208,-16.2242],[-57.0144,-16.1874],[-56.9874,-16.1774],[-56.9764,-16.1896],[-56.945,-16.1502],[-56.9218,-16.144],[-56.8759,-16.1623],[-56.8881,-16.179],[-56.8786,-16.1951],[-56.9087,-16.1999],[-56.9047,-16.2207],[-56.93,-16.2155],[-56.9399,-16.2302],[-56.8977,-16.243],[-56.8999,-16.2918],[-56.884,-16.3181],[-56.8649,-16.2864],[-56.8487,-16.2868],[-56.8313,-16.3219],[-56.8393,-16.3619],[-56.8254,-16.3651],[-56.8179,-16.4031],[-56.8026,-16.3792],[-56.8116,-16.3366],[-56.7677,-16.3434],[-56.7194,-16.3204],[-56.7321,-16.3702],[-56.6906,-16.3857],[-56.6458,-16.3593],[-56.6713,-16.3206],[-56.6171,-16.3453],[-56.6155,-16.3204],[-56.5977,-16.3141],[-56.5436,-16.3247],[-56.5424,-16.3047],[-56.5847,-16.2643],[-56.5906,-16.2382],[-56.5752,-16.2281],[-56.5858,-16.2116],[-56.563,-16.1985],[-56.6109,-16.1567],[-56.5957,-16.1466],[-56.5993,-16.1278],[-56.5538,-16.168],[-56.5205,-16.1275],[-56.4677,-16.1982],[-56.4421,-16.193],[-56.4257,-16.22],[-56.4007,-16.214],[-56.4068,-16.2477],[-56.3864,-16.2336],[-56.3334,-16.24],[-56.3571,-16.1532],[-56.3923,-16.1297],[-56.4344,-16.1686],[-56.4649,-16.1436],[-56.4576,-16.121],[-56.4399,-16.1221],[-56.4522,-16.0838],[-56.4289,-16.0808],[-56.418,-16.0479],[-56.4498,-16.0419],[-56.4669,-16.0033],[-56.3913,-16.0376],[-56.379,-16.0076],[-56.3506,-16.0215],[-56.3544,-16.0557],[-56.3349,-16.045],[-56.3284,-16.0632],[-56.2846,-16.0543],[-56.2672,-16.0847],[-56.2559,-16.0598],[-56.2182,-16.0565],[-56.2281,-16.0257],[-56.189,-16.0394],[-56.169,-16.0311],[-56.1756,-15.9809],[-56.158,-15.9622],[-56.1633,-15.9243],[-56.1327,-15.8979],[-56.1487,-15.8595],[-56.1288,-15.8236],[-56.0698,-15.8699],[-56.0267,-15.8554],[-56.0259,-15.8308],[-55.9911,-15.8109],[-55.9806,-15.781],[-55.891,-15.7585],[-55.8668,-15.7721],[-55.9119,-15.7906],[-55.9146,-15.8279],[-55.8647,-15.8068],[-55.874,-15.8363],[-55.8534,-15.847],[-55.8695,-15.8799],[-55.8474,-15.8735],[-55.8249,-15.8977],[-55.8578,-15.9572],[-55.8379,-15.9653],[-55.7828,-15.9394],[-55.7658,-15.9573],[-55.7743,-16.0215],[-55.8231,-16.0919],[-55.798,-16.0942],[-55.7067,-15.9847],[-55.6839,-15.9853],[-55.6835,-16.0116],[-55.6604,-15.9725],[-55.6384,-15.9794],[-55.6479,-16.0138],[-55.7287,-16.1214],[-55.6974,-16.1272],[-55.7013,-16.1448],[-55.7419,-16.1612],[-55.8105,-16.2963],[-55.7585,-16.2666],[-55.7319,-16.2679],[-55.7135,-16.2989],[-55.6669,-16.2808],[-55.6789,-16.1718],[-55.6571,-16.1375],[-55.6198,-16.1183],[-55.6004,-16.1271],[-55.5931,-16.1079],[-55.5678,-16.1137],[-55.5492,-16.1412],[-55.5067,-16.1189],[-55.485,-16.1773],[-55.5197,-16.2212],[-55.5545,-16.237],[-55.5346,-16.253],[-55.5549,-16.291],[-55.5226,-16.319],[-55.4874,-16.3029],[-55.4804,-16.3184],[-55.4355,-16.3128],[-55.434,-16.3284],[-55.3978,-16.327],[-55.3778,-16.3662],[-55.405,-16.3798],[-55.3987,-16.4053],[-55.3467,-16.4397],[-55.3516,-16.47],[-55.3233,-16.4814],[-55.3117,-16.505],[-55.3596,-16.554],[-55.3356,-16.5733],[-55.4325,-16.631],[-55.4228,-16.6528],[-55.3875,-16.6388],[-55.3729,-16.6609],[-55.3496,-16.6368],[-55.3013,-16.6381],[-55.2593,-16.6124],[-55.2409,-16.622],[-55.2295,-16.6041],[-55.2066,-16.6067],[-55.1698,-16.5791],[-55.0248,-16.5311],[-55.0054,-16.4843],[-54.9438,-16.4627],[-54.9393,-16.498],[-54.9796,-16.5422],[-55.0006,-16.6041],[-54.9831,-16.6322],[-55.0087,-16.6388],[-55.0226,-16.6847],[-54.9701,-16.7176],[-54.9763,-16.7564],[-54.954,-16.7896],[-54.9282,-16.7867],[-54.9365,-16.8276],[-54.92,-16.8358],[-54.9265,-16.8712],[-54.9476,-16.8821],[-54.9426,-16.9338],[-54.9597,-16.9518],[-54.9374,-16.9833],[-54.9408,-17.0189],[-54.9193,-17.0259],[-54.9464,-17.0533],[-54.9246,-17.0675],[-54.94,-17.0963],[-54.9157,-17.1115],[-54.9149,-17.1361],[-54.984,-17.1989],[-54.9795,-17.2157],[-54.9565,-17.2146],[-54.9953,-17.2568],[-54.9775,-17.2848],[-54.9405,-17.2893],[-54.9401,-17.3604],[-54.9827,-17.3888],[-54.9651,-17.4304],[-54.9972,-17.4431],[-55.0019,-17.4736],[-55.0214,-17.4893],[-55.0784,-17.4545],[-55.1535,-17.4497],[-55.1401,-17.3954],[-55.1823,-17.3778],[-55.2061,-17.3082],[-55.2319,-17.3198],[-55.2516,-17.3858],[-55.2702,-17.3951],[-55.2451,-17.4043],[-55.2318,-17.4412],[-55.2302,-17.503],[-55.2522,-17.5652],[-55.1781,-17.6234],[-55.0997,-17.5873],[-55.0787,-17.5504],[-55.05,-17.5483],[-55.0247,-17.5192],[-54.9708,-17.544],[-54.9791,-17.5619],[-54.9637,-17.6151],[-55.0473,-17.6403],[-55.0726,-17.6316],[-55.1371,-17.6502],[-55.139,-17.6478],[-55.2524,-17.5923],[-55.2631,-17.5648],[-55.2997,-17.5412],[-55.3316,-17.5493],[-55.4052,-17.5124],[-55.4327,-17.5117],[-55.483,-17.4787],[-55.515,-17.4836],[-55.5886,-17.4138],[-55.5838,-17.3828],[-55.6028,-17.3674],[-55.6039,-17.3667],[-55.6487,-17.3583],[-55.6581,-17.3391],[-55.7197,-17.3489],[-55.7612,-17.3235],[-55.8866,-17.2848],[-55.9602,-17.2502],[-56.012,-17.2367],[-56.0161,-17.1902],[-56.0441,-17.1714],[-56.1288,-17.1794],[-56.1845,-17.1946],[-56.213,-17.2259],[-56.2513,-17.219],[-56.3359,-17.2899],[-56.3607,-17.2808],[-56.3889,-17.3019],[-56.4509,-17.3264],[-56.4992,-17.2896],[-56.551,-17.3229],[-56.6725,-17.3346],[-56.6832,-17.3166],[-56.7233,-17.3085],[-56.7578,-17.3267],[-56.786,-17.3875],[-56.8287,-17.39],[-56.8244,-17.4231],[-56.846,-17.4806],[-56.876,-17.533],[-56.9096,-17.5325],[-56.9735,-17.5804],[-56.9647,-17.6217],[-56.9882,-17.6593],[-57.0334,-17.6947],[-57.0478,-17.7325],[-57.0753,-17.7368],[-57.1015,-17.7722],[-57.2252,-17.7828],[-57.2648,-17.8203],[-57.3114,-17.8178],[-57.3501,-17.8371],[-57.4263,-17.8564],[-57.4603,-17.8999],[-57.4853,-17.8622],[-57.5164,-17.8628],[-57.531,-17.8391],[-57.6093,-17.7975],[-57.6231,-17.7364],[-57.6846,-17.7165],[-57.6718,-17.6641],[-57.6927,-17.627],[-57.7121,-17.5431],[-57.7401,-17.5363],[-57.7523,-17.5645],[-57.8834,-17.4495],[-57.8935,-17.4554],[-57.9975,-17.5151],[-58.025,-17.5017],[-58.0437,-17.492],[-58.0491,-17.4783],[-58.058,-17.4558],[-58.0581,-17.4558],[-58.0601,-17.4507],[-58.0717,-17.4545],[-58.1148,-17.4503],[-58.1197,-17.448],[-58.1222,-17.4142],[-58.1385,-17.4126],[-58.1532,-17.3836],[-58.1981,-17.3861],[-58.1991,-17.385],[-58.203,-17.3542],[-58.2646,-17.3448],[-58.2762,-17.3051],[-58.2764,-17.3049],[-58.2778,-17.2999],[-58.2815,-17.2997],[-58.3031,-17.278],[-58.3044,-17.2696],[-58.3655,-17.1987],[-58.3964,-17.1852],[-58.3787,-17.0449],[-58.3956,-17.0222],[-58.4005,-16.9978],[-58.4161,-16.9948],[-58.4582,-16.9384],[-58.4764,-16.937],[-58.4632,-16.9072],[-58.4605,-16.9014],[-58.4605,-16.9012],[-58.4602,-16.9005],[-58.4606,-16.9004],[-58.4644,-16.8369],[-58.4629,-16.8217],[-58.4752,-16.8194],[-58.4772,-16.8163],[-58.4596,-16.7871],[-58.4696,-16.7173],[-58.4671,-16.6928],[-58.4355,-16.5938],[-58.3441,-16.5184],[-58.3441,-16.5184],[-58.3441,-16.5184],[-58.3342,-16.4902],[-58.3363,-16.4842],[-58.335,-16.4787],[-58.3564,-16.4261],[-58.3458,-16.3929],[-58.3076,-16.3709],[-58.3073,-16.3707],[-58.3073,-16.3707],[-58.3073,-16.3707],[-58.3072,-16.3679],[-58.3035,-16.3082],[-58.3216,-16.2655],[-58.3392,-16.2687],[-58.3886,-16.2614],[-58.3887,-16.2614],[-58.3887,-16.2614],[-58.3887,-16.2614],[-58.3989,-16.2991],[-58.4331,-16.3214],[-59.0623,-16.2965],[-59.0996,-16.295]]]}}]}