{"type":"FeatureCollection","features":[{"type":"Feature","geometry":{"type":"Polygon","coordinates":[[[-56.2723,-9.4008],[-56.6719,-9.3674],[-56.7084,-9.3732],[-56.7543,-9.4064],[-56.7723,-9.391],[-56.7755,-9.3295],[-56.8201,-9.2463],[-56.9417,-9.2293],[-56.9955,-9.2338],[-57.0598,-9.1824],[-57.0604,-9.1371],[-57.0392,-9.0983],[-57.0946,-9.0171],[-57.1383,-8.9946],[-57.2038,-8.9208],[-57.2355,-8.9074],[-57.2895,-8.9158],[-57.3179,-8.8857],[-57.3844,-8.8796],[-57.4162,-8.859],[-57.4175,-8.7926],[-57.4635,-8.7847],[-57.523,-8.7497],[-57.5624,-8.7613],[-57.5929,-8.7565],[-57.5936,-8.7074],[-57.6053,-8.6628],[-57.6226,-8.645],[-57.6222,-8.5912],[-57.6505,-8.5534],[-57.6334,-8.5268],[-57.6591,-8.5004],[-57.6518,-8.4788],[-57.6831,-8.4301],[-57.6866,-8.407],[-57.6678,-8.3639],[-57.6802,-8.3269],[-57.6417,-8.2199],[-57.6729,-8.1726],[-57.7187,-8.1512],[-57.7325,-8.0892],[-57.7765,-8.0522],[-57.8319,-7.9615],[-57.835,-7.8814],[-57.8796,-7.7819],[-57.8967,-7.6779],[-57.9344,-7.6568],[-57.9521,-7.5801],[-58.0022,-7.4881],[-58.0398,-7.4463],[-58.0614,-7.3952],[-58.1214,-7.3518],[-58.1371,-7.3561],[-58.1734,-7.3944],[-58.2131,-7.4585],[-58.2227,-7.524],[-58.2022,-7.6209],[-58.2398,-7.6536],[-58.276,-7.6997],[-58.3004,-7.7775],[-58.3782,-7.8274],[-58.3751,-7.899],[-58.355,-7.944],[-58.3315,-7.9688],[-58.3217,-8.025],[-58.2931,-8.0709],[-58.2902,-8.1356],[-58.3225,-8.17],[-58.3129,-8.2091],[-58.3281,-8.2858],[-58.3149,-8.3231],[-58.3448,-8.3407],[-58.3546,-8.3928],[-58.3902,-8.439],[-58.4178,-8.4895],[-58.4051,-8.5376],[-58.4105,-8.5704],[-58.3895,-8.5948],[-58.4373,-8.7034],[-58.412,-8.7206],[-58.3759,-8.7037],[-58.3284,-8.7122],[-58.388,-8.7748],[-58.4419,-8.7987],[-58.9628,-8.8028],[-59.1274,-8.8033],[-59.4814,-8.8033],[-60.0005,-8.8009],[-60.4202,-8.7966],[-60.8352,-8.7981],[-61.3104,-8.7985],[-61.5831,-8.7987],[-61.5137,-8.837],[-61.5125,-8.8606],[-61.4692,-8.9201],[-61.5057,-8.9662],[-61.5558,-9.0924],[-61.5554,-9.1315],[-61.5236,-9.179],[-61.5249,-9.2429],[-61.5684,-9.2371],[-61.5996,-9.256],[-61.6162,-9.3268],[-61.6279,-9.3516],[-61.5589,-9.3855],[-61.5567,-9.4356],[-61.5817,-9.4591],[-61.5491,-9.5125],[-61.508,-9.5405],[-61.4965,-9.5744],[-61.4969,-9.6241],[-61.477,-9.6299],[-61.5021,-9.6828],[-61.5324,-9.7118],[-61.5746,-9.7178],[-61.5315,-9.7399],[-61.5462,-9.7848],[-61.5249,-9.7957],[-61.5079,-9.8611],[-61.525,-9.9066],[-61.5228,-9.9467],[-61.5402,-10.0002],[-61.5717,-10.0465],[-61.6012,-10.1501],[-61.5578,-10.1823],[-61.574,-10.209],[-61.5767,-10.2486],[-61.5301,-10.3333],[-61.5017,-10.3538],[-61.5031,-10.3759],[-61.4618,-10.4199],[-61.4808,-10.4877],[-61.4762,-10.6077],[-61.4845,-10.6738],[-61.4994,-10.6986],[-61.4764,-10.7225],[-61.4796,-10.7877],[-61.5053,-10.7848],[-61.509,-10.8322],[-61.5251,-10.8558],[-61.5205,-10.9194],[-61.5301,-10.979],[-61.5503,-10.9861],[-61.429,-10.9875],[-61.0006,-10.9922],[-61.0006,-10.9884],[-60.4601,-10.9899],[-60.4297,-11.0375],[-60.4115,-11.0468],[-60.3916,-11.0938],[-60.35,-11.1083],[-60.342,-11.0826],[-60.3012,-11.0572],[-60.2808,-11.0915],[-60.1915,-11.1141],[-60.1764,-11.0988],[-60.075,-11.105],[-59.995,-11.1482],[-59.9797,-11.2395],[-59.9595,-11.2947],[-59.9271,-11.3113],[-59.9172,-11.3384],[-59.9206,-11.398],[-59.9344,-11.4237],[-59.9762,-11.4392],[-59.9854,-11.4693],[-60.0313,-11.497],[-60.0575,-11.5421],[-60.0942,-11.5628],[-60.1149,-11.5915],[-60.1099,-11.6155],[-60.1224,-11.6824],[-60.1124,-11.7593],[-60.0969,-11.7953],[-60.1034,-11.8192],[-60.0885,-11.8626],[-60.0659,-11.8908],[-60.0069,-11.8947],[-59.9842,-11.9148],[-59.987,-11.9601],[-59.9714,-11.9699],[-59.962,-12.0564],[-59.9293,-12.0785],[-59.8998,-12.1172],[-59.8996,-12.1663],[-59.9108,-12.1865],[-59.8868,-12.2451],[-59.7794,-12.3415],[-59.8193,-12.3787],[-59.8425,-12.4248],[-59.8442,-12.4672],[-59.8982,-12.5016],[-59.8961,-12.5364],[-59.9477,-12.5993],[-59.9816,-12.5921],[-60.0289,-12.6186],[-60.0598,-12.6642],[-60.056,-12.7049],[-60.0748,-12.7345],[-60.0625,-12.7574],[-60.0656,-12.8107],[-60.0828,-12.8526],[-60.0791,-12.8811],[-60.1015,-12.9134],[-60.1172,-12.9596],[-60.1833,-12.9676],[-60.2844,-13.0848],[-60.2685,-13.145],[-60.3038,-13.1784],[-60.3332,-13.258],[-60.3716,-13.3186],[-60.3796,-13.3752],[-60.3732,-13.4123],[-60.3879,-13.4547],[-60.4304,-13.482],[-60.5109,-13.5036],[-60.5358,-13.5373],[-60.5777,-13.5652],[-60.6241,-13.5691],[-60.686,-13.6252],[-60.7139,-13.676],[-60.7093,-13.693],[-60.6462,-13.7387],[-60.6235,-13.7195],[-60.5694,-13.7687],[-60.5319,-13.7716],[-60.4869,-13.819],[-60.4685,-13.8562],[-60.4509,-13.9268],[-60.4294,-13.9423],[-60.4155,-13.9804],[-60.3831,-13.9929],[-60.4415,-14.0787],[-60.4806,-14.0958],[-60.4742,-14.191],[-60.4496,-14.2501],[-60.4664,-14.2641],[-60.4536,-14.3141],[-60.4061,-14.3597],[-60.4065,-14.3987],[-60.379,-14.4645],[-60.3396,-14.5104],[-60.3231,-14.6105],[-60.2736,-14.621],[-60.245,-15.0975],[-60.5757,-15.0975],[-60.2395,-15.4746],[-60.2127,-15.8023],[-60.1741,-16.2669],[-59.7052,-16.2753],[-59.4692,-16.2796],[-59.2681,-16.288],[-58.7857,-16.308],[-58.4306,-16.3227],[-58.4001,-16.3036],[-58.3887,-16.2614],[-58.3273,-16.2705],[-58.304,-16.3091],[-58.3073,-16.3707],[-58.346,-16.393],[-58.3564,-16.426],[-58.335,-16.4787],[-58.3441,-16.5184],[-58.4362,-16.5929],[-58.4631,-16.6532],[-58.4728,-16.7489],[-58.4657,-16.7775],[-58.4786,-16.8142],[-58.4645,-16.8354],[-58.4605,-16.9014],[-58.4768,-16.9367],[-58.4319,-16.9917],[-58.4005,-16.9978],[-58.392,-17.0401],[-58.3989,-17.184],[-58.3677,-17.1991],[-58.3466,-17.2341],[-58.2762,-17.3051],[-58.2645,-17.3451],[-58.2201,-17.3602],[-58.1981,-17.3861],[-58.1532,-17.3836],[-58.1207,-17.4476],[-58.0914,-17.4609],[-58.0601,-17.4507],[-58.0434,-17.4927],[-57.9964,-17.5156],[-57.8834,-17.4495],[-57.7523,-17.5645],[-57.7401,-17.5363],[-57.7121,-17.5431],[-57.6927,-17.627],[-57.6718,-17.6641],[-57.6846,-17.7165],[-57.6231,-17.7364],[-57.6093,-17.7975],[-57.531,-17.8391],[-57.5164,-17.8628],[-57.4853,-17.8622],[-57.4603,-17.8999],[-57.4263,-17.8564],[-57.3501,-17.8371],[-57.3114,-17.8178],[-57.2648,-17.8203],[-57.2252,-17.7828],[-57.1015,-17.7722],[-57.0753,-17.7368],[-57.0478,-17.7325],[-57.0334,-17.6947],[-56.9882,-17.6593],[-56.9647,-17.6217],[-56.9735,-17.5804],[-56.9096,-17.5325],[-56.876,-17.533],[-56.846,-17.4806],[-56.8244,-17.4231],[-56.8287,-17.39],[-56.786,-17.3875],[-56.7578,-17.3267],[-56.7233,-17.3085],[-56.6832,-17.3166],[-56.6725,-17.3346],[-56.551,-17.3229],[-56.4992,-17.2896],[-56.4509,-17.3264],[-56.3889,-17.3019],[-56.3607,-17.2808],[-56.3359,-17.2899],[-56.2513,-17.219],[-56.213,-17.2259],[-56.1845,-17.1946],[-56.1288,-17.1794],[-56.0441,-17.1714],[-56.0161,-17.1902],[-56.012,-17.2367],[-55.9602,-17.2502],[-55.8866,-17.2848],[-55.7612,-17.3235],[-55.7197,-17.3489],[-55.6581,-17.3391],[-55.6487,-17.3583],[-55.6039,-17.3667],[-55.6028,-17.3674],[-55.5838,-17.3828],[-55.5886,-17.4138],[-55.515,-17.4836],[-55.483,-17.4787],[-55.4327,-17.5117],[-55.4052,-17.5124],[-55.3316,-17.5493],[-55.2997,-17.5412],[-55.2631,-17.5648],[-55.2524,-17.5923],[-55.139,-17.6478],[-55.1371,-17.6502],[-55.0726,-17.6316],[-55.0473,-17.6403],[-54.9434,-17.609],[-54.8609,-17.6239],[-54.825,-17.6097],[-54.8008,-17.5826],[-54.7588,-17.5657],[-54.7469,-17.5199],[-54.6361,-17.4957],[-54.5703,-17.4734],[-54.5023,-17.4807],[-54.4742,-17.498],[-54.4687,-17.5272],[-54.4263,-17.537],[-54.392,-17.5706],[-54.3771,-17.6074],[-54.3878,-17.6319],[-54.3434,-17.6556],[-54.3024,-17.6617],[-54.1916,-17.6056],[-54.1342,-17.6187],[-54.0847,-17.619],[-54.0516,-17.5628],[-54.0581,-17.5131],[-54.0233,-17.4771],[-53.9731,-17.4722],[-53.9311,-17.4395],[-53.8694,-17.3692],[-53.8313,-17.355],[-53.8201,-17.2946],[-53.7857,-17.2875],[-53.7628,-17.2466],[-53.7051,-17.2282],[-53.6801,-17.2541],[-53.7039,-17.6613],[-53.7572,-17.6728],[-53.7988,-17.6705],[-53.8559,-17.7027],[-53.8884,-17.749],[-53.9132,-17.808],[-53.9412,-17.8402],[-53.9557,-17.883],[-53.9517,-17.9158],[-53.8986,-17.9088],[-53.8542,-17.9258],[-53.7742,-18.0008],[-53.7367,-17.9949],[-53.6927,-18.0069],[-53.652,-17.9763],[-53.6162,-17.9787],[-53.5901,-18.0097],[-53.4679,-18.0349],[-53.435,-17.9846],[-53.4039,-17.9926],[-53.3808,-18.0088],[-53.2919,-17.9959],[-53.2378,-18.0074],[-53.1743,-18.0416],[-53.0723,-18.034],[-53.0713,-17.9659],[-53.1251,-17.9175],[-53.1317,-17.8423],[-53.16,-17.7749],[-53.2019,-17.7261],[-53.2338,-17.713],[-53.2485,-17.6273],[-53.2404,-17.6],[-53.242,-17.5042],[-53.2236,-17.4583],[-53.2314,-17.4404],[-53.1972,-17.3783],[-53.2092,-17.316],[-53.1551,-17.1866],[-53.1282,-17.1549],[-53.1107,-17.1081],[-53.055,-17.0644],[-53.0638,-17.0165],[-53.0545,-16.9684],[-53.035,-16.9425],[-53.0141,-16.8643],[-52.9717,-16.8697],[-52.9291,-16.8376],[-52.914,-16.8127],[-52.8851,-16.777],[-52.8324,-16.7722],[-52.7857,-16.7144],[-52.7616,-16.7068],[-52.759,-16.6711],[-52.726,-16.6145],[-52.7328,-16.5859],[-52.7032,-16.5963],[-52.6756,-16.5855],[-52.6257,-16.5322],[-52.6294,-16.5178],[-52.6061,-16.486],[-52.641,-16.4157],[-52.6745,-16.4124],[-52.6927,-16.3664],[-52.6812,-16.3017],[-52.6592,-16.2807],[-52.546,-16.2597],[-52.5492,-16.165],[-52.4717,-16.1267],[-52.361,-16.0816],[-52.3285,-16.0704],[-52.3108,-16.007],[-52.2898,-15.9646],[-52.2569,-15.9309],[-52.2543,-15.8937],[-52.1949,-15.8809],[-52.1276,-15.895],[-52.1112,-15.8829],[-52.0095,-15.8858],[-51.9721,-15.8381],[-51.9485,-15.8101],[-51.8803,-15.8243],[-51.8233,-15.7314],[-51.7679,-15.6536],[-51.754,-15.615],[-51.7556,-15.5574],[-51.7256,-15.5441],[-51.7319,-15.504],[-51.699,-15.4849],[-51.7093,-15.4616],[-51.696,-15.4059],[-51.6695,-15.3744],[-51.6915,-15.3249],[-51.6772,-15.2876],[-51.6507,-15.2731],[-51.6682,-15.2322],[-51.6474,-15.1735],[-51.6061,-15.1623],[-51.5341,-15.0652],[-51.462,-15.048],[-51.4305,-15.0098],[-51.3682,-15.0096],[-51.3531,-14.9939],[-51.4195,-14.9904],[-51.3499,-14.9903],[-51.3413,-14.9805],[-51.3387,-14.9751],[-51.3331,-14.9701],[-51.3071,-14.981],[-51.295,-15.0302],[-51.2759,-15.0438],[-51.216,-15.022],[-51.157,-14.9856],[-51.1449,-14.9434],[-51.1028,-14.9265],[-51.099,-14.9253],[-51.0871,-14.9213],[-51.0924,-14.8945],[-51.093,-14.8879],[-51.0896,-14.8402],[-51.0448,-14.7928],[-51.0532,-14.7389],[-51.0301,-14.7097],[-51.0267,-14.6594],[-50.9928,-14.6125],[-50.9937,-14.5701],[-50.9642,-14.5283],[-50.968,-14.482],[-50.989,-14.4536],[-50.9979,-14.4138],[-50.9873,-14.3577],[-50.9693,-14.3358],[-50.977,-14.2935],[-50.8987,-14.1149],[-50.8518,-14.1176],[-50.8415,-14.1043],[-50.8313,-14.0828],[-50.8562,-14.0193],[-50.8658,-13.9598],[-50.8402,-13.9237],[-50.8406,-13.8638],[-50.8591,-13.8287],[-50.8553,-13.7574],[-50.8739,-13.7345],[-50.8088,-13.6974],[-50.7716,-13.6045],[-50.759,-13.5203],[-50.7148,-13.4915],[-50.6835,-13.4452],[-50.6639,-13.435],[-50.6695,-13.3952],[-50.6111,-13.3202],[-50.585,-13.2153],[-50.6047,-13.1915],[-50.5946,-13.0967],[-50.6103,-13.0648],[-50.5708,-13.0342],[-50.5873,-12.9985],[-50.5488,-12.9928],[-50.5237,-12.9712],[-50.511,-12.8609],[-50.5131,-12.8446],[-50.567,-12.8434],[-50.6254,-12.8],[-50.623,-12.7346],[-50.6548,-12.6792],[-50.6562,-12.646],[-50.6839,-12.6481],[-50.7013,-12.6435],[-50.7001,-12.5951],[-50.6623,-12.5323],[-50.6471,-12.4855],[-50.6236,-12.4553],[-50.6337,-12.4139],[-50.6269,-12.384],[-50.6446,-12.3459],[-50.6489,-12.2991],[-50.6323,-12.2686],[-50.6814,-12.2169],[-50.6676,-12.0646],[-50.6871,-12.0356],[-50.6822,-11.9909],[-50.6568,-11.9668],[-50.668,-11.9301],[-50.6393,-11.8846],[-50.6863,-11.859],[-50.691,-11.8172],[-50.722,-11.7397],[-50.7173,-11.7274],[-50.6637,-11.6775],[-50.6575,-11.5928],[-50.6701,-11.5816],[-50.716,-11.579],[-50.7389,-11.5445],[-50.7421,-11.4603],[-50.7285,-11.3826],[-50.6999,-11.3131],[-50.6713,-11.2867],[-50.6547,-11.215],[-50.6645,-11.1516],[-50.6095,-11.0674],[-50.6326,-10.9319],[-50.6008,-10.9007],[-50.619,-10.8641],[-50.6122,-10.8103],[-50.5969,-10.8047],[-50.5706,-10.7525],[-50.6035,-10.6609],[-50.6033,-10.6598],[-50.5632,-10.6113],[-50.5414,-10.6093],[-50.5197,-10.5625],[-50.5168,-10.5055],[-50.4826,-10.49],[-50.4868,-10.462],[-50.4737,-10.4049],[-50.4483,-10.3916],[-50.4181,-10.3546],[-50.4231,-10.3274],[-50.382,-10.2121],[-50.3983,-10.1555],[-50.3778,-10.1107],[-50.3398,-10.0609],[-50.3026,-10.0354],[-50.2779,-9.9708],[-50.2655,-9.9127],[-50.2248,-9.8412],[-50.5006,-9.824],[-50.846,-9.8006],[-51.3043,-9.7729],[-51.7243,-9.7446],[-52.2567,-9.7077],[-52.6193,-9.6823],[-53.1334,-9.6452],[-53.5891,-9.611],[-54.1068,-9.5719],[-54.6135,-9.5358],[-54.9956,-9.5053],[-55.3779,-9.4743],[-55.8672,-9.4343],[-56.1565,-9.4104],[-56.2723,-9.4008]]]},"properties":{"name":"Mato Grosso","uf":"MT"}}]}